{"type": "FeatureCollection", "name": "n90_routes", "source": "FAA AIS Open Data - ATS Route; extracted 2026-08-29 (domestic), 2026-09-04 (oceanic); clipped to the N90 map bounding box", "features": [{"type": "Feature", "properties": {"ident": "J48", "type": "CONV", "dir": "BOTH", "family": "domestic", "points": 8}, "geometry": {"type": "LineString", "coordinates": [[-75.02773, 40.55975], [-75.11218, 40.50661], [-75.1965, 40.45341], [-75.28069, 40.40015], [-75.36475, 40.34683], [-75.44867, 40.29344], [-75.53246, 40.24], [-75.56025, 40.22224]]}}, {"type": "Feature", "properties": {"ident": "J48", "type": "CONV", "dir": "W", "family": "domestic", "points": 47}, "geometry": {"type": "LineString", "coordinates": [[-75.56025, 40.22224], [-75.65143, 40.17649], [-75.74249, 40.13066], [-75.81869, 40.09221], [-75.90951, 40.04624], [-76.00021, 40.00019], [-76.0762, 39.96151], [-76.16667, 39.91533], [-76.18254, 39.90722], [-76.27287, 39.86096], [-76.36308, 39.81464], [-76.45316, 39.76825], [-76.54313, 39.72178], [-76.63297, 39.67525], [-76.72269, 39.62865], [-76.81229, 39.58198], [-76.90178, 39.53524], [-76.97857, 39.49502], [-77.04671, 39.43039], [-77.11472, 39.36572], [-77.18261, 39.30102], [-77.25037, 39.23627], [-77.31801, 39.17149], [-77.38552, 39.10667], [-77.45291, 39.0418], [-77.52017, 38.9769], [-77.58731, 38.91196], [-77.65433, 38.84699], [-77.72122, 38.78197], [-77.788, 38.71692], [-77.85465, 38.65183], [-77.8655, 38.64121], [-77.95082, 38.59121], [-78.03601, 38.54114], [-78.12109, 38.49101], [-78.20605, 38.44082], [-78.29089, 38.39057], [-78.37561, 38.34026], [-78.46021, 38.28989], [-78.5447, 38.23946], [-78.62907, 38.18897], [-78.71332, 38.13841], [-78.79746, 38.0878], [-78.88148, 38.03712], [-78.96538, 37.98639], [-79.04917, 37.9356], [-79.10689, 37.90053]]}}, {"type": "Feature", "properties": {"ident": "J6", "type": "CONV", "dir": "BOTH", "family": "domestic", "points": 17}, "geometry": {"type": "LineString", "coordinates": [[-81.76992, 38.34968], [-81.66702, 38.37052], [-81.56407, 38.39127], [-81.46106, 38.41193], [-81.35799, 38.4325], [-81.25486, 38.45298], [-81.15167, 38.47337], [-81.04842, 38.49367], [-80.94512, 38.51388], [-80.84176, 38.534], [-80.73834, 38.55402], [-80.63486, 38.57396], [-80.53132, 38.5938], [-80.42773, 38.61356], [-80.32408, 38.63322], [-80.22038, 38.65279], [-80.17483, 38.66135]]}}, {"type": "Feature", "properties": {"ident": "J6", "type": "CONV", "dir": "W", "family": "domestic", "points": 90}, "geometry": {"type": "LineString", "coordinates": [[-80.17483, 38.66135], [-80.07104, 38.68079], [-79.96719, 38.70013], [-79.86329, 38.71938], [-79.75934, 38.73853], [-79.65532, 38.7576], [-79.55126, 38.77657], [-79.44713, 38.79545], [-79.34295, 38.81424], [-79.23872, 38.83294], [-79.19684, 38.84042], [-79.10228, 38.87944], [-79.00762, 38.91838], [-78.91286, 38.95725], [-78.85912, 38.97924], [-78.76419, 39.01798], [-78.66915, 39.05664], [-78.57401, 39.09522], [-78.47876, 39.13373], [-78.38341, 39.17215], [-78.28796, 39.2105], [-78.1924, 39.24878], [-78.09674, 39.28697], [-78.00097, 39.32509], [-77.9051, 39.36312], [-77.84836, 39.38558], [-77.75689, 39.42973], [-77.66531, 39.47382], [-77.57362, 39.51783], [-77.4818, 39.56177], [-77.38987, 39.60563], [-77.29783, 39.64943], [-77.2251, 39.68394], [-77.13284, 39.7276], [-77.04047, 39.77119], [-76.94798, 39.81471], [-76.85537, 39.85815], [-76.76265, 39.90152], [-76.70426, 39.92876], [-76.61134, 39.97201], [-76.51831, 40.01518], [-76.484, 40.03107], [-76.3908, 40.07414], [-76.29749, 40.11713], [-76.2913, 40.11998], [-76.19855, 40.16377], [-76.10568, 40.20747], [-76.01269, 40.25111], [-75.91959, 40.29467], [-75.82734, 40.3377], [-75.73401, 40.38112], [-75.64095, 40.42429], [-75.54736, 40.46755], [-75.45365, 40.51073], [-75.40038, 40.53522], [-75.30648, 40.57828], [-75.21246, 40.62126], [-75.11831, 40.66417], [-75.07648, 40.68319], [-74.98216, 40.72599], [-74.88773, 40.76871], [-74.82183, 40.79844], [-74.75335, 40.8637], [-74.68474, 40.92892], [-74.61599, 40.99411], [-74.5471, 41.05925], [-74.53831, 41.06755], [-74.50449, 41.14689], [-74.47059, 41.22622], [-74.46203, 41.24623], [-74.42802, 41.32554], [-74.39393, 41.40485], [-74.35975, 41.48414], [-74.3341, 41.54354], [-74.29978, 41.62281], [-74.26537, 41.70208], [-74.23088, 41.78134], [-74.19764, 41.8575], [-74.16299, 41.93674], [-74.12825, 42.01597], [-74.09343, 42.09518], [-74.05852, 42.17439], [-74.03183, 42.23479], [-73.99676, 42.31398], [-73.9616, 42.39315], [-73.92635, 42.47232], [-73.89101, 42.55147], [-73.85559, 42.63062], [-73.82007, 42.70975], [-73.80319, 42.74729]]}}, {"type": "Feature", "properties": {"ident": "J60", "type": "CONV", "dir": "BOTH", "family": "domestic", "points": 78}, "geometry": {"type": "LineString", "coordinates": [[-82.16197, 41.35807], [-82.05171, 41.34841], [-81.94148, 41.33863], [-81.83129, 41.32876], [-81.72113, 41.31877], [-81.611, 41.30868], [-81.57762, 41.30561], [-81.46754, 41.29537], [-81.35749, 41.28503], [-81.24748, 41.27459], [-81.1375, 41.26404], [-81.02756, 41.25339], [-80.91766, 41.24263], [-80.80779, 41.23177], [-80.69796, 41.2208], [-80.58817, 41.20973], [-80.47841, 41.19855], [-80.41611, 41.19216], [-80.30642, 41.18082], [-80.19676, 41.16938], [-80.15633, 41.16513], [-80.04673, 41.15354], [-79.93716, 41.14185], [-79.82763, 41.13005], [-79.71815, 41.11815], [-79.6087, 41.10614], [-79.49929, 41.09403], [-79.38992, 41.08182], [-79.2806, 41.0695], [-79.17131, 41.05708], [-79.06207, 41.04456], [-78.95287, 41.03194], [-78.84371, 41.01921], [-78.73459, 41.00638], [-78.62551, 40.99344], [-78.51648, 40.98041], [-78.42756, 40.96969], [-78.31861, 40.95647], [-78.2097, 40.94314], [-78.10084, 40.92971], [-77.99272, 40.91627], [-77.88418, 40.90162], [-77.77568, 40.88687], [-77.68985, 40.87512], [-77.58144, 40.86019], [-77.47308, 40.84516], [-77.43469, 40.83981], [-77.3264, 40.82463], [-77.21816, 40.80936], [-77.10997, 40.79398], [-77.00182, 40.77851], [-76.89373, 40.76293], [-76.78569, 40.74725], [-76.6777, 40.73147], [-76.56976, 40.71559], [-76.46188, 40.69961], [-76.35404, 40.68353], [-76.24626, 40.66734], [-76.24019, 40.66643], [-76.13559, 40.69195], [-76.03091, 40.71738], [-75.92615, 40.74271], [-75.82131, 40.76794], [-75.71639, 40.79308], [-75.61139, 40.81813], [-75.50631, 40.84308], [-75.40115, 40.86793], [-75.39899, 40.86844], [-75.29375, 40.89319], [-75.18843, 40.91785], [-75.17084, 40.92195], [-75.06543, 40.94651], [-74.95995, 40.97097], [-74.95983, 40.97099], [-74.85426, 40.99535], [-74.74862, 41.0196], [-74.6429, 41.04376], [-74.53831, 41.06755]]}}, {"type": "Feature", "properties": {"ident": "J70", "type": "CONV", "dir": "BOTH", "family": "domestic", "points": 127}, "geometry": {"type": "LineString", "coordinates": [[-86.91159, 42.71337], [-86.80674, 42.68166], [-86.70199, 42.64985], [-86.59736, 42.61795], [-86.49283, 42.58595], [-86.38841, 42.55385], [-86.28409, 42.52166], [-86.17989, 42.48938], [-86.10481, 42.46604], [-85.99187, 42.46464], [-85.87893, 42.46312], [-85.76599, 42.46149], [-85.65307, 42.45975], [-85.54014, 42.4579], [-85.42723, 42.45594], [-85.31432, 42.45387], [-85.20142, 42.45169], [-85.08853, 42.4494], [-84.97565, 42.447], [-84.86277, 42.44448], [-84.74991, 42.44186], [-84.63705, 42.43912], [-84.5242, 42.43628], [-84.50992, 42.43591], [-84.39709, 42.43297], [-84.28426, 42.42993], [-84.19425, 42.42742], [-84.08145, 42.42413], [-83.96866, 42.42073], [-83.85588, 42.41723], [-83.74311, 42.41361], [-83.63036, 42.40988], [-83.59391, 42.40865], [-83.48114, 42.40536], [-83.36838, 42.40195], [-83.25564, 42.39844], [-83.14291, 42.39481], [-83.03019, 42.39108], [-82.91749, 42.38724], [-82.81786, 42.38374], [-82.68878, 42.37909], [-82.59504, 42.37547], [-82.48241, 42.37101], [-82.36979, 42.36644], [-82.25719, 42.36177], [-82.1446, 42.35698], [-82.03204, 42.35208], [-81.91949, 42.34708], [-81.80696, 42.34196], [-81.69444, 42.33673], [-81.58195, 42.3314], [-81.37264, 42.32136], [-81.1634, 42.31095], [-80.95424, 42.30015], [-80.74514, 42.28897], [-80.63281, 42.28278], [-80.52051, 42.27647], [-80.40823, 42.27006], [-80.29597, 42.26354], [-80.18373, 42.2569], [-80.07152, 42.25016], [-79.95933, 42.24331], [-79.84717, 42.23635], [-79.73503, 42.22928], [-79.62292, 42.2221], [-79.51083, 42.21481], [-79.39877, 42.20741], [-79.28673, 42.1999], [-79.17472, 42.19229], [-79.12131, 42.18862], [-79.01472, 42.16209], [-78.90821, 42.13547], [-78.8018, 42.10874], [-78.69547, 42.08192], [-78.58924, 42.05501], [-78.4831, 42.02799], [-78.37704, 42.00088], [-78.27108, 41.97366], [-78.16521, 41.94636], [-78.05942, 41.91895], [-77.95373, 41.89145], [-77.85261, 41.86502], [-77.7471, 41.83732], [-77.64168, 41.80953], [-77.55192, 41.78577], [-77.44667, 41.7578], [-77.34152, 41.72973], [-77.23645, 41.70157], [-77.15276, 41.67906], [-77.04786, 41.65072], [-76.94306, 41.62228], [-76.83835, 41.59375], [-76.73373, 41.56512], [-76.6292, 41.5364], [-76.5965, 41.52739], [-76.49209, 41.49855], [-76.38778, 41.46962], [-76.28356, 41.44059], [-76.17943, 41.41146], [-76.0754, 41.38224], [-75.97146, 41.35293], [-75.86761, 41.32353], [-75.76386, 41.29403], [-75.68947, 41.27281], [-75.58813, 41.23904], [-75.4869, 41.20518], [-75.38578, 41.17123], [-75.33141, 41.15293], [-75.23045, 41.11885], [-75.12959, 41.08468], [-75.0899, 41.0712], [-74.98918, 41.0369], [-74.88858, 41.00252], [-74.86903, 40.99583], [-74.76259, 40.97374], [-74.65623, 40.95155], [-74.54993, 40.92926], [-74.44371, 40.90688], [-74.33756, 40.88439], [-74.23148, 40.86181], [-74.12547, 40.83914], [-74.01954, 40.81637], [-73.91368, 40.7935], [-73.8686, 40.78372], [-73.82029, 40.70886], [-73.77209, 40.63398], [-73.77139, 40.63289]]}}, {"type": "Feature", "properties": {"ident": "J70", "type": "CONV", "dir": "BOTH", "family": "domestic", "points": 3}, "geometry": {"type": "LineString", "coordinates": [[-82.68878, 42.37909], [-82.80146, 42.38316], [-82.81786, 42.38374]]}}, {"type": "Feature", "properties": {"ident": "Q101", "type": "RNAV", "dir": "BOTH", "family": "domestic", "points": 47}, "geometry": {"type": "LineString", "coordinates": [[-77.41043, 34.4862], [-77.36467, 34.56051], [-77.31882, 34.63481], [-77.27289, 34.70908], [-77.22688, 34.78334], [-77.18079, 34.85759], [-77.13461, 34.93181], [-77.08835, 35.00602], [-77.042, 35.08021], [-76.99557, 35.15438], [-76.94906, 35.22854], [-76.94126, 35.24095], [-76.89588, 35.31559], [-76.8504, 35.39022], [-76.80485, 35.46482], [-76.75921, 35.53941], [-76.71348, 35.61398], [-76.66767, 35.68853], [-76.62178, 35.76307], [-76.5758, 35.83759], [-76.53977, 35.89587], [-76.49052, 35.96904], [-76.44119, 36.0422], [-76.39177, 36.11533], [-76.34225, 36.18844], [-76.29264, 36.26153], [-76.24294, 36.3346], [-76.19314, 36.40765], [-76.14326, 36.48068], [-76.09327, 36.55369], [-76.04319, 36.62668], [-75.99302, 36.69964], [-75.94275, 36.77259], [-75.89239, 36.84551], [-75.84193, 36.91842], [-75.79137, 36.9913], [-75.7453, 37.05757], [-75.72777, 37.13972], [-75.71021, 37.22187], [-75.6926, 37.30401], [-75.67495, 37.38615], [-75.65727, 37.46829], [-75.63955, 37.55042], [-75.62178, 37.63256], [-75.61026, 37.68576], [-75.61888, 37.76881], [-75.62649, 37.84197]]}}, {"type": "Feature", "properties": {"ident": "Q107", "type": "RNAV", "dir": "BOTH", "family": "domestic", "points": 47}, "geometry": {"type": "LineString", "coordinates": [[-77.98157, 33.87635], [-77.96867, 33.95899], [-77.95574, 34.04163], [-77.94279, 34.12426], [-77.92981, 34.2069], [-77.9168, 34.28953], [-77.90377, 34.37217], [-77.89072, 34.4548], [-77.87763, 34.53743], [-77.86453, 34.62005], [-77.85139, 34.70268], [-77.83823, 34.78531], [-77.82517, 34.86715], [-77.79807, 34.94747], [-77.77092, 35.02777], [-77.74371, 35.10807], [-77.71646, 35.18837], [-77.68914, 35.26865], [-77.66178, 35.34894], [-77.63436, 35.42921], [-77.60688, 35.50948], [-77.57935, 35.58974], [-77.55176, 35.67], [-77.52822, 35.73835], [-77.502, 35.81892], [-77.47572, 35.89948], [-77.44938, 35.98004], [-77.423, 36.06059], [-77.39656, 36.14114], [-77.37006, 36.22168], [-77.34351, 36.30221], [-77.31691, 36.38274], [-77.29025, 36.46326], [-77.28773, 36.47085], [-77.26101, 36.55137], [-77.23425, 36.63188], [-77.20742, 36.71239], [-77.18054, 36.79289], [-77.1536, 36.87338], [-77.12661, 36.95386], [-77.09956, 37.03434], [-77.07245, 37.11482], [-77.04528, 37.19529], [-77.01806, 37.27575], [-76.99078, 37.3562], [-76.96344, 37.43665], [-76.95493, 37.46164]]}}, {"type": "Feature", "properties": {"ident": "Q109", "type": "RNAV", "dir": "BOTH", "family": "domestic", "points": 26}, "geometry": {"type": "LineString", "coordinates": [[-78.59366, 34.32816], [-78.53163, 34.3939], [-78.4695, 34.45961], [-78.40727, 34.52528], [-78.34494, 34.59093], [-78.28252, 34.65654], [-78.21999, 34.72212], [-78.15737, 34.78767], [-78.09669, 34.85106], [-78.03409, 34.91668], [-77.97138, 34.98227], [-77.90857, 35.04783], [-77.84567, 35.11336], [-77.78266, 35.17885], [-77.71955, 35.24431], [-77.65634, 35.30974], [-77.59302, 35.37514], [-77.5296, 35.4405], [-77.46608, 35.50583], [-77.40246, 35.57112], [-77.33873, 35.63639], [-77.2749, 35.70161], [-77.21097, 35.76681], [-77.14692, 35.83197], [-77.08278, 35.8971], [-77.06043, 35.91975]]}}, {"type": "Feature", "properties": {"ident": "Q109", "type": "RNAV", "dir": "E", "family": "domestic", "points": 32}, "geometry": {"type": "LineString", "coordinates": [[-80.92124, 33.05212], [-80.85347, 33.11311], [-80.7856, 33.17406], [-80.71764, 33.23497], [-80.64958, 33.29584], [-80.58143, 33.35668], [-80.51318, 33.41748], [-80.44867, 33.47484], [-80.3607, 33.51435], [-80.27264, 33.5538], [-80.18451, 33.59319], [-80.09629, 33.63252], [-80.0669, 33.6456], [-79.97857, 33.68482], [-79.89015, 33.72398], [-79.80165, 33.76307], [-79.71307, 33.80211], [-79.62441, 33.84108], [-79.56441, 33.86739], [-79.47565, 33.9063], [-79.3868, 33.94514], [-79.29787, 33.98392], [-79.20886, 34.02263], [-79.18542, 34.03281], [-79.09951, 34.07615], [-79.01352, 34.11943], [-78.92744, 34.16265], [-78.87795, 34.18745], [-78.79156, 34.23033], [-78.70507, 34.27315], [-78.6185, 34.31591], [-78.59366, 34.32816]]}}, {"type": "Feature", "properties": {"ident": "Q111", "type": "RNAV", "dir": "BOTH", "family": "domestic", "points": 39}, "geometry": {"type": "LineString", "coordinates": [[-77.82517, 34.86715], [-77.80689, 34.94912], [-77.78857, 35.03109], [-77.77021, 35.11306], [-77.75182, 35.19502], [-77.73339, 35.27698], [-77.71492, 35.35893], [-77.69642, 35.44089], [-77.67788, 35.52284], [-77.65933, 35.60463], [-77.64469, 35.6871], [-77.63001, 35.76958], [-77.6153, 35.85205], [-77.60057, 35.93452], [-77.5858, 36.01699], [-77.571, 36.09945], [-77.55617, 36.18192], [-77.54131, 36.26438], [-77.52642, 36.34684], [-77.51149, 36.4293], [-77.49654, 36.51176], [-77.48957, 36.55014], [-77.4748, 36.63262], [-77.45999, 36.7151], [-77.44516, 36.79758], [-77.43029, 36.88005], [-77.41539, 36.96253], [-77.40046, 37.045], [-77.39012, 37.10202], [-77.37924, 37.18489], [-77.36834, 37.26777], [-77.35741, 37.35065], [-77.34646, 37.43352], [-77.33548, 37.51639], [-77.32448, 37.59927], [-77.32298, 37.6106], [-77.30555, 37.69278], [-77.28809, 37.77495], [-77.28604, 37.78458]]}}, {"type": "Feature", "properties": {"ident": "Q113", "type": "RNAV", "dir": "BOTH", "family": "domestic", "points": 34}, "geometry": {"type": "LineString", "coordinates": [[-79.2382, 34.42818], [-79.19279, 34.50263], [-79.14731, 34.57706], [-79.10174, 34.65148], [-79.0561, 34.72588], [-79.01037, 34.80026], [-78.96455, 34.87462], [-78.91866, 34.94897], [-78.87268, 35.0233], [-78.82661, 35.09761], [-78.78047, 35.1719], [-78.73424, 35.24618], [-78.68792, 35.32044], [-78.64152, 35.39468], [-78.59503, 35.4689], [-78.54846, 35.54311], [-78.5018, 35.6173], [-78.45506, 35.69147], [-78.42961, 35.73179], [-78.38279, 35.80595], [-78.33588, 35.8801], [-78.28888, 35.95423], [-78.2418, 36.02835], [-78.19463, 36.10244], [-78.14736, 36.17651], [-78.10001, 36.25057], [-78.05257, 36.32461], [-78.01779, 36.37878], [-77.97184, 36.45346], [-77.9258, 36.52811], [-77.87966, 36.60275], [-77.83344, 36.67737], [-77.78713, 36.75198], [-77.76397, 36.78923]]}}, {"type": "Feature", "properties": {"ident": "Q113", "type": "RNAV", "dir": "E", "family": "domestic", "points": 15}, "geometry": {"type": "LineString", "coordinates": [[-80.0669, 33.6456], [-80.00114, 33.70843], [-79.93528, 33.77124], [-79.86932, 33.83401], [-79.80326, 33.89674], [-79.73711, 33.95944], [-79.67086, 34.0221], [-79.60451, 34.08473], [-79.53806, 34.14732], [-79.47152, 34.20987], [-79.46584, 34.21521], [-79.39918, 34.27772], [-79.33243, 34.3402], [-79.26558, 34.40264], [-79.2382, 34.42818]]}}, {"type": "Feature", "properties": {"ident": "Q117", "type": "RNAV", "dir": "BOTH", "family": "domestic", "points": 44}, "geometry": {"type": "LineString", "coordinates": [[-77.67442, 34.56129], [-77.65594, 34.64322], [-77.63743, 34.72515], [-77.61888, 34.80708], [-77.60029, 34.889], [-77.58167, 34.97092], [-77.56301, 35.05283], [-77.54431, 35.13475], [-77.5434, 35.13875], [-77.49033, 35.2099], [-77.43716, 35.28102], [-77.38391, 35.35213], [-77.33056, 35.42321], [-77.27711, 35.49426], [-77.22357, 35.56529], [-77.16994, 35.6363], [-77.13906, 35.6771], [-77.08539, 35.74813], [-77.03161, 35.81913], [-76.97774, 35.8901], [-76.95846, 35.91547], [-76.90969, 35.98885], [-76.86083, 36.06222], [-76.81187, 36.13556], [-76.76283, 36.20888], [-76.71369, 36.28219], [-76.66446, 36.35547], [-76.61514, 36.42874], [-76.56572, 36.50198], [-76.51622, 36.5752], [-76.46661, 36.6484], [-76.41692, 36.72159], [-76.36712, 36.79475], [-76.31724, 36.86789], [-76.26725, 36.94101], [-76.21717, 37.0141], [-76.167, 37.08718], [-76.11673, 37.16024], [-76.06636, 37.23327], [-76.01589, 37.30629], [-75.96533, 37.37928], [-75.91466, 37.45225], [-75.8639, 37.5252], [-75.85809, 37.53354]]}}, {"type": "Feature", "properties": {"ident": "Q131", "type": "RNAV", "dir": "BOTH", "family": "domestic", "points": 57}, "geometry": {"type": "LineString", "coordinates": [[-77.86906, 33.79242], [-77.84858, 33.87399], [-77.82806, 33.95556], [-77.8075, 34.03713], [-77.7869, 34.1187], [-77.76626, 34.20026], [-77.74559, 34.28182], [-77.72487, 34.36337], [-77.70411, 34.44492], [-77.68331, 34.52647], [-77.67442, 34.56129], [-77.62984, 34.63611], [-77.58519, 34.71091], [-77.54045, 34.7857], [-77.49564, 34.86047], [-77.45074, 34.93522], [-77.40576, 35.00995], [-77.3607, 35.08467], [-77.31555, 35.15937], [-77.27032, 35.23406], [-77.22501, 35.30873], [-77.17962, 35.38338], [-77.13414, 35.45801], [-77.08858, 35.53263], [-77.04293, 35.60723], [-76.9972, 35.68182], [-76.95138, 35.75638], [-76.90547, 35.83093], [-76.85948, 35.90546], [-76.85601, 35.91107], [-76.80702, 35.98436], [-76.75794, 36.05763], [-76.70876, 36.13087], [-76.6595, 36.2041], [-76.61014, 36.2773], [-76.56069, 36.35049], [-76.51114, 36.42365], [-76.4615, 36.4968], [-76.41177, 36.56992], [-76.36194, 36.64302], [-76.31202, 36.71611], [-76.26201, 36.78917], [-76.2119, 36.86221], [-76.16169, 36.93523], [-76.11139, 37.00823], [-76.06099, 37.0812], [-76.03422, 37.1199], [-75.99164, 37.19601], [-75.94899, 37.2721], [-75.90624, 37.34818], [-75.86341, 37.42425], [-75.8205, 37.5003], [-75.77749, 37.57633], [-75.7344, 37.65235], [-75.69122, 37.72835], [-75.64795, 37.80434], [-75.62649, 37.84197]]}}, {"type": "Feature", "properties": {"ident": "Q133", "type": "RNAV", "dir": "E", "family": "domestic", "points": 76}, "geometry": {"type": "LineString", "coordinates": [[-75.96356, 37.60572], [-75.90592, 37.67544], [-75.84817, 37.74513], [-75.79031, 37.81479], [-75.73234, 37.88442], [-75.67426, 37.95403], [-75.61607, 38.0236], [-75.55777, 38.09315], [-75.49936, 38.16267], [-75.44084, 38.23216], [-75.40916, 38.2697], [-75.39178, 38.35191], [-75.37436, 38.43411], [-75.35689, 38.51631], [-75.33939, 38.59851], [-75.32185, 38.68071], [-75.30426, 38.7629], [-75.3025, 38.77112], [-75.25081, 38.84407], [-75.19901, 38.91699], [-75.14711, 38.98989], [-75.0951, 39.06277], [-75.04298, 39.13563], [-74.99075, 39.20846], [-74.95306, 39.26092], [-74.89113, 39.32908], [-74.82907, 39.39721], [-74.76689, 39.46531], [-74.7046, 39.53338], [-74.64218, 39.60141], [-74.57963, 39.66941], [-74.51697, 39.73738], [-74.45418, 39.80531], [-74.39126, 39.87321], [-74.32822, 39.94107], [-74.26506, 40.00891], [-74.2135, 40.06415], [-74.1501, 40.13192], [-74.08658, 40.19965], [-74.02293, 40.26735], [-73.95916, 40.33501], [-73.94947, 40.34528], [-73.90294, 40.42069], [-73.8563, 40.49609], [-73.80956, 40.57147], [-73.77139, 40.63289], [-73.74776, 40.71427], [-73.72407, 40.79565], [-73.70033, 40.87702], [-73.67652, 40.95838], [-73.65266, 41.03974], [-73.62874, 41.1211], [-73.60476, 41.20245], [-73.58071, 41.28379], [-73.58061, 41.28414], [-73.56943, 41.36704], [-73.55823, 41.44995], [-73.54699, 41.53285], [-73.53573, 41.61575], [-73.52443, 41.69866], [-73.51311, 41.78156], [-73.50176, 41.86446], [-73.49038, 41.94735], [-73.47897, 42.03025], [-73.46753, 42.11315], [-73.45606, 42.19604], [-73.44455, 42.27894], [-73.43302, 42.36183], [-73.42146, 42.44472], [-73.40987, 42.52761], [-73.39825, 42.6105], [-73.38659, 42.69339], [-73.37491, 42.77628], [-73.36319, 42.85916], [-73.35144, 42.94205], [-73.34402, 42.9943]]}}, {"type": "Feature", "properties": {"ident": "Q133", "type": "RNAV", "dir": "W", "family": "domestic", "points": 23}, "geometry": {"type": "LineString", "coordinates": [[-73.34402, 42.9943], [-73.35144, 43.07745], [-73.35889, 43.1606], [-73.36635, 43.24376], [-73.37383, 43.32691], [-73.38134, 43.41006], [-73.38886, 43.49321], [-73.3964, 43.57636], [-73.40397, 43.65951], [-73.40799, 43.70356], [-73.4174, 43.78661], [-73.42683, 43.86966], [-73.43629, 43.95271], [-73.44578, 44.03576], [-73.45529, 44.11881], [-73.46483, 44.20186], [-73.4744, 44.28491], [-73.48399, 44.36796], [-73.49361, 44.451], [-73.50326, 44.53405], [-73.51294, 44.61709], [-73.52264, 44.70014], [-73.52283, 44.70175]]}}, {"type": "Feature", "properties": {"ident": "Q135", "type": "RNAV", "dir": "BOTH", "family": "domestic", "points": 16}, "geometry": {"type": "LineString", "coordinates": [[-78.48822, 34.25093], [-78.42156, 34.31346], [-78.3548, 34.37596], [-78.28793, 34.43841], [-78.22097, 34.50084], [-78.15391, 34.56322], [-78.08675, 34.62557], [-78.01949, 34.68788], [-77.95212, 34.75015], [-77.88466, 34.81239], [-77.82517, 34.86715], [-77.75946, 34.93071], [-77.69365, 34.99423], [-77.62773, 35.05772], [-77.56172, 35.12117], [-77.5434, 35.13875]]}}, {"type": "Feature", "properties": {"ident": "Q135", "type": "RNAV", "dir": "E", "family": "domestic", "points": 24}, "geometry": {"type": "LineString", "coordinates": [[-80.1796, 33.04075], [-80.10468, 33.09553], [-80.02965, 33.15027], [-79.95454, 33.20496], [-79.87933, 33.25961], [-79.80403, 33.31421], [-79.7454, 33.35664], [-79.66993, 33.41116], [-79.59436, 33.46564], [-79.5187, 33.52007], [-79.44295, 33.57445], [-79.3671, 33.62879], [-79.29988, 33.67684], [-79.2239, 33.73114], [-79.14782, 33.78539], [-79.07165, 33.8396], [-78.99537, 33.89376], [-78.91901, 33.94787], [-78.84254, 34.00193], [-78.76598, 34.05595], [-78.68932, 34.10991], [-78.61256, 34.16384], [-78.5357, 34.21771], [-78.48822, 34.25093]]}}, {"type": "Feature", "properties": {"ident": "Q141", "type": "RNAV", "dir": "BOTH", "family": "domestic", "points": 28}, "geometry": {"type": "LineString", "coordinates": [[-77.13268, 37.33222], [-77.09751, 37.41073], [-77.06228, 37.48922], [-77.06222, 37.48934], [-77.02691, 37.56783], [-76.99152, 37.6463], [-76.95606, 37.72476], [-76.92052, 37.80321], [-76.88491, 37.88165], [-76.84922, 37.96008], [-76.84462, 37.97019], [-76.7681, 38.02771], [-76.69147, 38.08518], [-76.61471, 38.1426], [-76.53784, 38.19997], [-76.46084, 38.25728], [-76.41384, 38.2922], [-76.34987, 38.35873], [-76.2858, 38.42523], [-76.2216, 38.49169], [-76.15728, 38.55811], [-76.09285, 38.6245], [-76.0283, 38.69085], [-75.98408, 38.73621], [-75.89169, 38.77808], [-75.79919, 38.81987], [-75.70658, 38.8616], [-75.63643, 38.89312]]}}, {"type": "Feature", "properties": {"ident": "Q167", "type": "RNAV", "dir": "BOTH", "family": "domestic", "points": 51}, "geometry": {"type": "LineString", "coordinates": [[-75.62649, 37.84197], [-75.56677, 37.91069], [-75.50694, 37.97937], [-75.447, 38.04803], [-75.44285, 38.05277], [-75.37987, 38.11975], [-75.31677, 38.1867], [-75.25355, 38.25361], [-75.19021, 38.32048], [-75.12676, 38.38733], [-75.06319, 38.45414], [-75.05015, 38.46782], [-74.9812, 38.52956], [-74.91407, 38.59427], [-74.84682, 38.65895], [-74.77945, 38.7236], [-74.75105, 38.75079], [-74.67913, 38.81245], [-74.60709, 38.87405], [-74.53492, 38.93562], [-74.52897, 38.94069], [-74.46018, 39.00459], [-74.39126, 39.06846], [-74.32222, 39.13228], [-74.25305, 39.19606], [-74.18376, 39.2598], [-74.11434, 39.32349], [-74.04479, 39.38715], [-74.0171, 39.41246], [-73.94733, 39.47603], [-73.87743, 39.53955], [-73.8074, 39.60304], [-73.73725, 39.66648], [-73.66697, 39.72988], [-73.59655, 39.79323], [-73.53667, 39.84699], [-73.46614, 39.91035], [-73.39548, 39.97366], [-73.32468, 40.03693], [-73.26175, 40.09303], [-73.19064, 40.15617], [-73.11939, 40.21927], [-73.08575, 40.249], [-73.0143, 40.31203], [-72.94272, 40.37502], [-72.87101, 40.43796], [-72.79916, 40.50086], [-72.72717, 40.56372], [-72.65505, 40.62653], [-72.5828, 40.68929], [-72.58191, 40.69006]]}}, {"type": "Feature", "properties": {"ident": "Q167", "type": "RNAV", "dir": "W", "family": "domestic", "points": 26}, "geometry": {"type": "LineString", "coordinates": [[-72.58191, 40.69006], [-72.51215, 40.75446], [-72.46166, 40.80097], [-72.38428, 40.86026], [-72.31212, 40.91541], [-72.21228, 40.95084], [-72.11234, 40.98618], [-72.01229, 41.02143], [-71.97519, 41.03446], [-71.88367, 41.08117], [-71.79202, 41.1278], [-71.75771, 41.14523], [-71.66609, 41.192], [-71.57435, 41.2387], [-71.48247, 41.28533], [-71.39046, 41.33188], [-71.33483, 41.35996], [-71.24265, 41.40645], [-71.15035, 41.45286], [-71.05791, 41.4992], [-70.96534, 41.54546], [-70.96408, 41.54609], [-70.90977, 41.61884], [-70.85534, 41.69157], [-70.80078, 41.76428], [-70.74618, 41.83685]]}}, {"type": "Feature", "properties": {"ident": "Q409", "type": "RNAV", "dir": "BOTH", "family": "domestic", "points": 31}, "geometry": {"type": "LineString", "coordinates": [[-79.0292, 34.43475], [-78.96823, 34.50122], [-78.96823, 34.50122], [-78.90705, 34.56758], [-78.84577, 34.63391], [-78.78439, 34.70021], [-78.72292, 34.76648], [-78.66134, 34.83272], [-78.59967, 34.89893], [-78.5379, 34.9651], [-78.47602, 35.03124], [-78.41405, 35.09736], [-78.35198, 35.16344], [-78.2898, 35.22949], [-78.24008, 35.28221], [-78.17773, 35.3482], [-78.11528, 35.41417], [-78.05272, 35.4801], [-77.99006, 35.546], [-77.9273, 35.61186], [-77.86444, 35.6777], [-77.80147, 35.7435], [-77.7384, 35.80927], [-77.67522, 35.875], [-77.61194, 35.9407], [-77.54856, 36.00637], [-77.48506, 36.07201], [-77.42147, 36.13761], [-77.35776, 36.20318], [-77.29395, 36.26871], [-77.24999, 36.31377]]}}, {"type": "Feature", "properties": {"ident": "Q409", "type": "RNAV", "dir": "W", "family": "domestic", "points": 24}, "geometry": {"type": "LineString", "coordinates": [[-80.3264, 33.04243], [-80.26596, 33.10861], [-80.20544, 33.17475], [-80.14482, 33.24087], [-80.08411, 33.30696], [-80.0233, 33.37301], [-79.96241, 33.43904], [-79.90142, 33.50504], [-79.84034, 33.57101], [-79.77917, 33.63695], [-79.7179, 33.70286], [-79.65654, 33.76873], [-79.59508, 33.83458], [-79.56441, 33.86739], [-79.5012, 33.93213], [-79.43789, 33.99683], [-79.37448, 34.0615], [-79.31097, 34.12614], [-79.24737, 34.19075], [-79.18367, 34.25532], [-79.17797, 34.2611], [-79.11976, 34.32915], [-79.06146, 34.39718], [-79.0292, 34.43475]]}}, {"type": "Feature", "properties": {"ident": "Q409", "type": "RNAV", "dir": "W", "family": "domestic", "points": 57}, "geometry": {"type": "LineString", "coordinates": [[-77.24999, 36.31377], [-77.19287, 36.38325], [-77.13565, 36.4527], [-77.07832, 36.52213], [-77.02089, 36.59152], [-76.96336, 36.66089], [-76.90572, 36.73023], [-76.84798, 36.79955], [-76.79014, 36.86883], [-76.73219, 36.93809], [-76.67413, 37.00732], [-76.61597, 37.07652], [-76.55771, 37.14569], [-76.49933, 37.21483], [-76.44085, 37.28395], [-76.38226, 37.35304], [-76.32357, 37.42209], [-76.26476, 37.49112], [-76.20585, 37.56012], [-76.16602, 37.60668], [-76.10708, 37.67571], [-76.04804, 37.74472], [-75.98888, 37.81369], [-75.92961, 37.88264], [-75.87023, 37.95156], [-75.81074, 38.02045], [-75.75114, 38.0893], [-75.69143, 38.15813], [-75.6316, 38.22693], [-75.57166, 38.29569], [-75.53385, 38.33899], [-75.52267, 38.42186], [-75.51147, 38.50472], [-75.50024, 38.58759], [-75.48898, 38.67045], [-75.48154, 38.72517], [-75.47013, 38.80803], [-75.45869, 38.89088], [-75.44722, 38.97373], [-75.44113, 39.01767], [-75.36927, 39.07955], [-75.29728, 39.14138], [-75.22516, 39.20318], [-75.15292, 39.26492], [-75.11053, 39.30108], [-75.03408, 39.3598], [-74.95751, 39.41846], [-74.88081, 39.47708], [-74.80397, 39.53564], [-74.72701, 39.59415], [-74.64992, 39.65262], [-74.5727, 39.71103], [-74.49534, 39.76939], [-74.43163, 39.81735], [-74.36767, 39.88467], [-74.30359, 39.95197], [-74.25128, 40.00676]]}}, {"type": "Feature", "properties": {"ident": "Q436", "type": "RNAV", "dir": "BOTH", "family": "domestic", "points": 90}, "geometry": {"type": "LineString", "coordinates": [[-84.58067, 42.88444], [-84.4681, 42.87266], [-84.35557, 42.86076], [-84.24309, 42.84876], [-84.13064, 42.83664], [-84.01825, 42.82442], [-83.90807, 42.81232], [-83.79576, 42.79988], [-83.6835, 42.78732], [-83.57128, 42.77466], [-83.45911, 42.76188], [-83.34698, 42.749], [-83.23491, 42.736], [-83.12288, 42.7229], [-83.01873, 42.71062], [-82.90636, 42.69947], [-82.79402, 42.6882], [-82.7495, 42.68371], [-82.63724, 42.6722], [-82.52502, 42.66059], [-82.51032, 42.65906], [-82.35477, 42.64276], [-82.19931, 42.62624], [-82.04393, 42.60952], [-81.88863, 42.59258], [-81.73341, 42.57543], [-81.57828, 42.55807], [-81.42324, 42.54051], [-81.26828, 42.52273], [-81.12183, 42.51865], [-80.9754, 42.51438], [-80.82899, 42.50993], [-80.6826, 42.50529], [-80.48741, 42.49502], [-80.29228, 42.48442], [-80.09721, 42.47348], [-79.90222, 42.46221], [-79.78963, 42.45555], [-79.67706, 42.44878], [-79.56452, 42.4419], [-79.45201, 42.43491], [-79.33952, 42.42781], [-79.22706, 42.4206], [-79.11462, 42.41328], [-79.00221, 42.40585], [-78.91084, 42.39973], [-78.80368, 42.37367], [-78.69661, 42.3475], [-78.58963, 42.32124], [-78.48274, 42.29488], [-78.37593, 42.26841], [-78.2744, 42.24314], [-78.16841, 42.21514], [-78.06251, 42.18703], [-77.95671, 42.15883], [-77.851, 42.13053], [-77.74539, 42.10214], [-77.63987, 42.07364], [-77.53445, 42.04505], [-77.42912, 42.01637], [-77.40972, 42.01107], [-77.3042, 41.98288], [-77.19878, 41.95459], [-77.09345, 41.92621], [-76.98822, 41.89773], [-76.9328, 41.88268], [-76.82775, 41.85397], [-76.72279, 41.82517], [-76.61793, 41.79627], [-76.52239, 41.76983], [-76.4177, 41.74076], [-76.3131, 41.71161], [-76.22254, 41.68626], [-76.11813, 41.65693], [-76.0138, 41.62751], [-75.90957, 41.59799], [-75.85585, 41.58273], [-75.75177, 41.55305], [-75.64779, 41.52328], [-75.5439, 41.49342], [-75.48259, 41.47574], [-75.38594, 41.43455], [-75.28941, 41.39327], [-75.19301, 41.35192], [-75.09673, 41.31048], [-75.00057, 41.26897], [-74.90453, 41.22737], [-74.80862, 41.1857], [-74.71282, 41.14395], [-74.69517, 41.13624]]}}, {"type": "Feature", "properties": {"ident": "Q436", "type": "RNAV", "dir": "BOTH", "family": "domestic", "points": 7}, "geometry": {"type": "LineString", "coordinates": [[-81.26828, 42.52273], [-81.1553, 42.5196], [-81.04233, 42.51636], [-80.92937, 42.513], [-80.81643, 42.50954], [-80.70349, 42.50596], [-80.6826, 42.50529]]}}, {"type": "Feature", "properties": {"ident": "Q445", "type": "RNAV", "dir": "E", "family": "domestic", "points": 53}, "geometry": {"type": "LineString", "coordinates": [[-75.62649, 37.84197], [-75.56677, 37.91069], [-75.50694, 37.97937], [-75.447, 38.04803], [-75.44285, 38.05277], [-75.37987, 38.11975], [-75.31677, 38.1867], [-75.25355, 38.25361], [-75.19021, 38.32048], [-75.12676, 38.38733], [-75.06319, 38.45414], [-75.05015, 38.46782], [-74.9812, 38.52956], [-74.91407, 38.59427], [-74.84682, 38.65895], [-74.77945, 38.7236], [-74.75105, 38.75079], [-74.67913, 38.81245], [-74.60709, 38.87405], [-74.53492, 38.93562], [-74.52897, 38.94069], [-74.46018, 39.00459], [-74.39126, 39.06846], [-74.32222, 39.13228], [-74.25305, 39.19606], [-74.18376, 39.2598], [-74.11434, 39.32349], [-74.04479, 39.38715], [-74.0171, 39.41246], [-73.93955, 39.4704], [-73.86186, 39.52828], [-73.78405, 39.58612], [-73.70611, 39.6439], [-73.62804, 39.70163], [-73.57607, 39.73998], [-73.50148, 39.80046], [-73.42677, 39.86089], [-73.35192, 39.92127], [-73.27694, 39.9816], [-73.20183, 40.04189], [-73.1397, 40.09164], [-73.06186, 40.14996], [-72.9839, 40.20823], [-72.90579, 40.26644], [-72.82756, 40.32461], [-72.74919, 40.38272], [-72.67068, 40.44078], [-72.59204, 40.49878], [-72.51326, 40.55673], [-72.43434, 40.61463], [-72.35529, 40.67248], [-72.2761, 40.73027], [-72.20596, 40.78133]]}}, {"type": "Feature", "properties": {"ident": "Q481", "type": "RNAV", "dir": "E", "family": "domestic", "points": 50}, "geometry": {"type": "LineString", "coordinates": [[-75.96356, 37.60572], [-75.90592, 37.67544], [-75.84817, 37.74513], [-75.79031, 37.81479], [-75.73234, 37.88442], [-75.67426, 37.95403], [-75.61607, 38.0236], [-75.55777, 38.09315], [-75.49936, 38.16267], [-75.44084, 38.23216], [-75.40916, 38.2697], [-75.39178, 38.35191], [-75.37436, 38.43411], [-75.35689, 38.51631], [-75.33939, 38.59851], [-75.32185, 38.68071], [-75.30426, 38.7629], [-75.3025, 38.77112], [-75.24741, 38.84254], [-75.1922, 38.91393], [-75.13688, 38.9853], [-75.08145, 39.05664], [-75.02591, 39.12795], [-74.97026, 39.19924], [-74.92516, 39.25688], [-74.85269, 39.3185], [-74.78008, 39.38008], [-74.70735, 39.44161], [-74.63449, 39.5031], [-74.56151, 39.56454], [-74.5183, 39.60084], [-74.44433, 39.66166], [-74.37023, 39.72243], [-74.296, 39.78315], [-74.23502, 39.83291], [-74.16861, 39.89883], [-74.10207, 39.96472], [-74.0354, 40.03056], [-74.01371, 40.05196], [-73.94977, 40.11942], [-73.88571, 40.18685], [-73.82153, 40.25424], [-73.75721, 40.3216], [-73.69277, 40.38892], [-73.62819, 40.4562], [-73.56349, 40.52345], [-73.49866, 40.59067], [-73.43369, 40.65784], [-73.3686, 40.72498], [-73.30368, 40.79177]]}}, {"type": "Feature", "properties": {"ident": "Q60", "type": "RNAV", "dir": "BOTH", "family": "domestic", "points": 59}, "geometry": {"type": "LineString", "coordinates": [[-81.92691, 35.03349], [-81.8416, 35.07896], [-81.7562, 35.12437], [-81.6707, 35.16972], [-81.5851, 35.215], [-81.49941, 35.26023], [-81.41363, 35.3054], [-81.32775, 35.3505], [-81.24177, 35.39555], [-81.1557, 35.44053], [-81.06953, 35.48546], [-80.98326, 35.53032], [-80.8969, 35.57512], [-80.81044, 35.61986], [-80.72389, 35.66453], [-80.63723, 35.70915], [-80.55048, 35.7537], [-80.46364, 35.79819], [-80.37669, 35.84262], [-80.28965, 35.88698], [-80.20251, 35.93129], [-80.15079, 35.95753], [-80.06439, 36.00287], [-79.9779, 36.04815], [-79.899, 36.08935], [-79.81469, 36.13737], [-79.73028, 36.18532], [-79.64577, 36.23322], [-79.56116, 36.28106], [-79.47644, 36.32883], [-79.39161, 36.37655], [-79.30669, 36.42421], [-79.22165, 36.47181], [-79.13652, 36.51934], [-79.05128, 36.56682], [-79.01928, 36.58461], [-78.93366, 36.63173], [-78.84794, 36.67878], [-78.78981, 36.71062], [-78.69774, 36.74934], [-78.60558, 36.78799], [-78.51333, 36.82657], [-78.42098, 36.86507], [-78.32854, 36.9035], [-78.23601, 36.94186], [-78.15364, 36.97592], [-78.06093, 37.01414], [-77.96813, 37.05229], [-77.87523, 37.09037], [-77.78224, 37.12837], [-77.68916, 37.16631], [-77.59598, 37.20417], [-77.50271, 37.24195], [-77.40935, 37.27967], [-77.31589, 37.31731], [-77.22234, 37.35487], [-77.12869, 37.39236], [-77.03495, 37.42978], [-76.95493, 37.46164]]}}, {"type": "Feature", "properties": {"ident": "Q64", "type": "RNAV", "dir": "BOTH", "family": "domestic", "points": 111}, "geometry": {"type": "LineString", "coordinates": [[-84.53802, 33.00294], [-84.45422, 33.04774], [-84.37033, 33.09249], [-84.28636, 33.13718], [-84.2023, 33.18181], [-84.11815, 33.22638], [-84.03393, 33.2709], [-83.94961, 33.31537], [-83.86521, 33.35977], [-83.78072, 33.40412], [-83.69615, 33.44841], [-83.61149, 33.49265], [-83.52674, 33.53682], [-83.44191, 33.58094], [-83.35699, 33.625], [-83.27198, 33.669], [-83.18689, 33.71295], [-83.10171, 33.75683], [-83.01644, 33.80066], [-82.93109, 33.84443], [-82.87299, 33.87416], [-82.78836, 33.91898], [-82.70365, 33.96375], [-82.61884, 34.00846], [-82.53394, 34.05311], [-82.44895, 34.09771], [-82.36388, 34.14224], [-82.27871, 34.18672], [-82.19346, 34.23113], [-82.15432, 34.25149], [-82.06823, 34.29487], [-81.98204, 34.33819], [-81.89577, 34.38146], [-81.80941, 34.42466], [-81.72295, 34.4678], [-81.63641, 34.51088], [-81.54978, 34.5539], [-81.46306, 34.59686], [-81.37625, 34.63975], [-81.28935, 34.68259], [-81.20236, 34.72536], [-81.11528, 34.76807], [-81.05601, 34.79708], [-80.96347, 34.83131], [-80.87085, 34.86547], [-80.77816, 34.89956], [-80.68539, 34.93357], [-80.59254, 34.96752], [-80.49962, 35.00139], [-80.40662, 35.0352], [-80.31354, 35.06893], [-80.22038, 35.1026], [-80.12715, 35.13619], [-80.03384, 35.16971], [-79.99186, 35.18476], [-79.89848, 35.21824], [-79.80501, 35.25165], [-79.71148, 35.28499], [-79.61786, 35.31826], [-79.52417, 35.35145], [-79.4304, 35.38457], [-79.33655, 35.41762], [-79.24263, 35.4506], [-79.14863, 35.4835], [-79.05455, 35.51633], [-78.9604, 35.54909], [-78.86617, 35.58178], [-78.78909, 35.60844], [-78.6947, 35.64096], [-78.60024, 35.67342], [-78.5057, 35.7058], [-78.42961, 35.73179], [-78.33495, 35.76406], [-78.24021, 35.79627], [-78.1454, 35.82839], [-78.05051, 35.86045], [-77.95554, 35.89243], [-77.8605, 35.92433], [-77.76538, 35.95616], [-77.70373, 35.97673], [-77.62806, 36.03326], [-77.55227, 36.08975], [-77.47638, 36.14619], [-77.40037, 36.20258], [-77.32426, 36.25892], [-77.24999, 36.31377], [-77.1808, 36.37572], [-77.11149, 36.43763], [-77.04208, 36.4995], [-76.97255, 36.56133], [-76.90291, 36.62312], [-76.83316, 36.68486], [-76.7633, 36.74657], [-76.69333, 36.80823], [-76.62324, 36.86986], [-76.55304, 36.93144], [-76.48273, 36.99298], [-76.4123, 37.05448], [-76.34176, 37.11594], [-76.2711, 37.17736], [-76.20033, 37.23873], [-76.12944, 37.30007], [-76.05844, 37.36136], [-75.98732, 37.42261], [-75.91609, 37.48381], [-75.85809, 37.53354], [-75.80446, 37.60522], [-75.75074, 37.67687], [-75.69691, 37.7485], [-75.64298, 37.8201], [-75.62649, 37.84197]]}}, {"type": "Feature", "properties": {"ident": "Q75", "type": "RNAV", "dir": "BOTH", "family": "domestic", "points": 45}, "geometry": {"type": "LineString", "coordinates": [[-81.50245, 33.06865], [-81.46889, 33.14709], [-81.43527, 33.22553], [-81.41209, 33.27952], [-81.38216, 33.35901], [-81.35217, 33.43849], [-81.32212, 33.51796], [-81.29202, 33.59742], [-81.26187, 33.67688], [-81.23165, 33.75633], [-81.20139, 33.83578], [-81.17106, 33.91521], [-81.14068, 33.99464], [-81.11024, 34.07406], [-81.07975, 34.15347], [-81.0492, 34.23288], [-81.01886, 34.31158], [-80.95182, 34.37387], [-80.88469, 34.43613], [-80.81746, 34.49835], [-80.75012, 34.56053], [-80.68269, 34.62268], [-80.65712, 34.6462], [-80.62005, 34.72376], [-80.58292, 34.8013], [-80.54571, 34.87884], [-80.50843, 34.95636], [-80.47108, 35.03387], [-80.43367, 35.11137], [-80.39617, 35.18885], [-80.35861, 35.26633], [-80.32098, 35.34379], [-80.28327, 35.42124], [-80.24549, 35.49868], [-80.20764, 35.57611], [-80.16972, 35.65353], [-80.13172, 35.73093], [-80.09365, 35.80833], [-80.0555, 35.88571], [-80.01728, 35.96308], [-79.97898, 36.04043], [-79.97637, 36.0457], [-79.91583, 36.11315], [-79.85517, 36.18057], [-79.79443, 36.24794]]}}, {"type": "Feature", "properties": {"ident": "Q75", "type": "RNAV", "dir": "W", "family": "domestic", "points": 125}, "geometry": {"type": "LineString", "coordinates": [[-79.79443, 36.24794], [-79.73356, 36.31529], [-79.67259, 36.38262], [-79.61152, 36.44991], [-79.55034, 36.51717], [-79.48905, 36.5844], [-79.42765, 36.6516], [-79.36615, 36.71877], [-79.30454, 36.7859], [-79.24283, 36.853], [-79.181, 36.92008], [-79.11907, 36.98712], [-79.05702, 37.05412], [-78.99487, 37.1211], [-78.98294, 37.13394], [-78.92066, 37.20088], [-78.85827, 37.26778], [-78.79577, 37.33466], [-78.73315, 37.4015], [-78.67043, 37.46831], [-78.60759, 37.53508], [-78.54464, 37.60182], [-78.48158, 37.66853], [-78.41841, 37.7352], [-78.35512, 37.80184], [-78.29172, 37.86845], [-78.2282, 37.93502], [-78.16456, 38.00156], [-78.15303, 38.01361], [-78.08275, 38.0759], [-78.01234, 38.13815], [-77.94182, 38.20036], [-77.87118, 38.26252], [-77.80041, 38.32464], [-77.72952, 38.38672], [-77.65852, 38.44876], [-77.58739, 38.51076], [-77.51613, 38.57271], [-77.44476, 38.63462], [-77.37326, 38.69648], [-77.33329, 38.731], [-77.25791, 38.79006], [-77.18241, 38.84908], [-77.10678, 38.90805], [-77.03103, 38.96698], [-76.99051, 38.99843], [-76.91464, 39.05734], [-76.83865, 39.1162], [-76.76253, 39.17501], [-76.68628, 39.23377], [-76.6099, 39.29248], [-76.53339, 39.35114], [-76.45676, 39.40975], [-76.38535, 39.46424], [-76.30286, 39.51801], [-76.22025, 39.57173], [-76.17353, 39.60205], [-76.08993, 39.65495], [-76.00621, 39.70779], [-75.92236, 39.76057], [-75.83838, 39.81329], [-75.79859, 39.83821], [-75.71442, 39.89085], [-75.67082, 39.91806], [-75.59189, 39.97535], [-75.51283, 40.03258], [-75.43363, 40.08976], [-75.37677, 40.13072], [-75.29735, 40.18781], [-75.21779, 40.24485], [-75.1381, 40.30184], [-75.05828, 40.35876], [-74.97832, 40.41564], [-74.9727, 40.41962], [-74.89261, 40.47645], [-74.81239, 40.53322], [-74.74179, 40.58305], [-74.65629, 40.6353], [-74.57065, 40.68749], [-74.48488, 40.73962], [-74.39945, 40.79139], [-74.31341, 40.8434], [-74.22725, 40.89534], [-74.14094, 40.94722], [-74.0545, 40.99903], [-73.96793, 41.05078], [-73.88122, 41.10247], [-73.79681, 41.15264], [-73.71077, 41.20508], [-73.6246, 41.25746], [-73.58061, 41.28414], [-73.50145, 41.34252], [-73.42215, 41.40085], [-73.3427, 41.45912], [-73.31416, 41.48002], [-73.23522, 41.53875], [-73.15613, 41.59742], [-73.0769, 41.65604], [-72.99752, 41.7146], [-72.918, 41.77312], [-72.83833, 41.83157], [-72.75852, 41.88997], [-72.68858, 41.94102], [-72.58252, 41.96791], [-72.47638, 41.99471], [-72.37014, 42.0214], [-72.26382, 42.048], [-72.19364, 42.06549], [-72.08717, 42.09193], [-71.98061, 42.11827], [-71.87396, 42.1445], [-71.76722, 42.17064], [-71.6604, 42.19668], [-71.55348, 42.22262], [-71.44648, 42.24846], [-71.33939, 42.2742], [-71.23222, 42.29985], [-71.12496, 42.32539], [-71.01761, 42.35083], [-70.98955, 42.35746], [-70.88642, 42.39121], [-70.78317, 42.42486], [-70.67982, 42.45843], [-70.57636, 42.4919], [-70.55794, 42.49784]]}}, {"type": "Feature", "properties": {"ident": "Q818", "type": "RNAV", "dir": "BOTH", "family": "domestic", "points": 94}, "geometry": {"type": "LineString", "coordinates": [[-83.74699, 42.96677], [-83.63336, 42.97231], [-83.51971, 42.97773], [-83.40604, 42.98304], [-83.29235, 42.98824], [-83.17864, 42.99332], [-83.06491, 42.9983], [-82.95116, 43.00316], [-82.8374, 43.0079], [-82.72361, 43.01254], [-82.60982, 43.01706], [-82.496, 43.02147], [-82.40705, 43.02484], [-82.384, 43.0257], [-82.15534, 43.03398], [-81.92662, 43.04181], [-81.81271, 43.04554], [-81.69879, 43.04915], [-81.58486, 43.05265], [-81.47091, 43.05604], [-81.35695, 43.05931], [-81.24298, 43.06247], [-81.129, 43.06552], [-81.09528, 43.0664], [-80.9814, 43.06181], [-80.86753, 43.05712], [-80.75368, 43.0523], [-80.63984, 43.04738], [-80.52603, 43.04235], [-80.41223, 43.0372], [-80.29846, 43.03194], [-80.1847, 43.02656], [-80.07097, 43.02107], [-79.95725, 43.01547], [-79.84355, 43.00976], [-79.72988, 43.00394], [-79.61623, 42.998], [-79.5026, 42.99195], [-79.38899, 42.98579], [-79.27541, 42.97952], [-79.16185, 42.97313], [-79.04831, 42.96663], [-78.96778, 42.96195], [-78.96654, 42.9618], [-78.85425, 42.94806], [-78.742, 42.9342], [-78.73879, 42.9338], [-78.63203, 42.90496], [-78.52537, 42.87602], [-78.41882, 42.84699], [-78.31236, 42.81785], [-78.206, 42.78862], [-78.09974, 42.75929], [-77.99359, 42.72986], [-77.88753, 42.70033], [-77.78157, 42.6707], [-77.74474, 42.66038], [-77.64003, 42.62857], [-77.53542, 42.59667], [-77.43093, 42.56468], [-77.32654, 42.53259], [-77.22225, 42.50041], [-77.11808, 42.46813], [-77.02592, 42.43947], [-76.92196, 42.407], [-76.81811, 42.37443], [-76.71436, 42.34177], [-76.61072, 42.30902], [-76.50719, 42.27617], [-76.40377, 42.24323], [-76.30046, 42.21019], [-76.19725, 42.17707], [-76.13647, 42.1575], [-76.03813, 42.11717], [-75.93992, 42.07676], [-75.84183, 42.03627], [-75.74386, 41.9957], [-75.64602, 41.95504], [-75.6126, 41.94112], [-75.51493, 41.90035], [-75.41738, 41.85949], [-75.31996, 41.81856], [-75.22266, 41.77754], [-75.12549, 41.73644], [-75.02844, 41.69526], [-74.93151, 41.65399], [-74.83471, 41.61265], [-74.79661, 41.59634], [-74.7, 41.55486], [-74.60351, 41.5133], [-74.55397, 41.4919], [-74.45763, 41.45027], [-74.36142, 41.40856], [-74.35715, 41.4067]]}}, {"type": "Feature", "properties": {"ident": "Q85", "type": "RNAV", "dir": "W", "family": "domestic", "points": 72}, "geometry": {"type": "LineString", "coordinates": [[-79.9869, 33.06082], [-79.93087, 33.12967], [-79.87475, 33.1985], [-79.81855, 33.2673], [-79.76225, 33.33608], [-79.7454, 33.35664], [-79.68897, 33.42537], [-79.63246, 33.49408], [-79.57585, 33.56276], [-79.51915, 33.63142], [-79.46236, 33.70005], [-79.40549, 33.76865], [-79.34852, 33.83723], [-79.29146, 33.90578], [-79.2343, 33.97431], [-79.18542, 34.03281], [-79.12814, 34.10131], [-79.07076, 34.16978], [-79.01329, 34.23823], [-78.99511, 34.25985], [-78.93751, 34.32826], [-78.87983, 34.39664], [-78.84217, 34.44121], [-78.78111, 34.50762], [-78.78111, 34.50762], [-78.71982, 34.57392], [-78.65844, 34.64019], [-78.59697, 34.70643], [-78.53539, 34.77264], [-78.47372, 34.83882], [-78.41194, 34.90496], [-78.35007, 34.97108], [-78.33086, 34.99158], [-78.26886, 35.05766], [-78.20677, 35.12371], [-78.14458, 35.18972], [-78.08228, 35.25571], [-78.01988, 35.32166], [-77.95739, 35.38759], [-77.89479, 35.45348], [-77.83208, 35.51933], [-77.76928, 35.58516], [-77.70637, 35.65095], [-77.64336, 35.71671], [-77.58024, 35.78244], [-77.51702, 35.84813], [-77.45369, 35.91379], [-77.39026, 35.97942], [-77.32672, 36.04501], [-77.32548, 36.04629], [-77.27328, 36.11816], [-77.22099, 36.19], [-77.1686, 36.26182], [-77.11611, 36.33361], [-77.06353, 36.40538], [-77.01085, 36.47713], [-76.95808, 36.54886], [-76.9052, 36.62056], [-76.85223, 36.69224], [-76.79916, 36.7639], [-76.74599, 36.83553], [-76.69272, 36.90714], [-76.63934, 36.97872], [-76.58587, 37.05028], [-76.5323, 37.12182], [-76.47863, 37.19333], [-76.42485, 37.26482], [-76.37097, 37.33629], [-76.31699, 37.40772], [-76.26291, 37.47914], [-76.20872, 37.55053], [-76.16602, 37.60668]]}}, {"type": "Feature", "properties": {"ident": "Q87", "type": "RNAV", "dir": "BOTH", "family": "domestic", "points": 48}, "geometry": {"type": "LineString", "coordinates": [[-79.51097, 34.55097], [-79.46197, 34.62389], [-79.41288, 34.69678], [-79.41016, 34.70081], [-79.36091, 34.77365], [-79.31156, 34.84647], [-79.26213, 34.91927], [-79.21261, 34.99205], [-79.16301, 35.06481], [-79.11331, 35.13754], [-79.06353, 35.21026], [-79.01366, 35.28296], [-78.96369, 35.35564], [-78.91364, 35.42829], [-78.91336, 35.42871], [-78.86321, 35.50134], [-78.81298, 35.57396], [-78.78909, 35.60844], [-78.73871, 35.68102], [-78.68825, 35.75358], [-78.6377, 35.82612], [-78.58705, 35.89864], [-78.53631, 35.97114], [-78.48547, 36.04362], [-78.43455, 36.11607], [-78.38353, 36.18851], [-78.33241, 36.26092], [-78.2812, 36.33331], [-78.24978, 36.37764], [-78.17872, 36.43825], [-78.10754, 36.49881], [-78.03626, 36.55933], [-77.96486, 36.6198], [-77.89335, 36.68024], [-77.82173, 36.74063], [-77.76397, 36.78923], [-77.69219, 36.84957], [-77.6203, 36.90988], [-77.54829, 36.97014], [-77.47616, 37.03036], [-77.40393, 37.09053], [-77.39012, 37.10202], [-77.31777, 37.16215], [-77.2453, 37.22225], [-77.17272, 37.2823], [-77.10002, 37.3423], [-77.0272, 37.40226], [-76.95493, 37.46164]]}}, {"type": "Feature", "properties": {"ident": "Q87", "type": "RNAV", "dir": "E", "family": "domestic", "points": 24}, "geometry": {"type": "LineString", "coordinates": [[-80.44989, 33.0093], [-80.40537, 33.08381], [-80.36077, 33.1583], [-80.3161, 33.23277], [-80.27135, 33.30723], [-80.22652, 33.38167], [-80.18162, 33.4561], [-80.13664, 33.53051], [-80.09159, 33.6049], [-80.0669, 33.6456], [-80.02174, 33.71997], [-79.97649, 33.79433], [-79.93117, 33.86867], [-79.88577, 33.94299], [-79.84029, 34.0173], [-79.79473, 34.09159], [-79.74909, 34.16586], [-79.7467, 34.16973], [-79.70098, 34.24399], [-79.65517, 34.31823], [-79.61899, 34.37677], [-79.57303, 34.45098], [-79.527, 34.52517], [-79.51097, 34.55097]]}}, {"type": "Feature", "properties": {"ident": "Q97", "type": "RNAV", "dir": "BOTH", "family": "domestic", "points": 191}, "geometry": {"type": "LineString", "coordinates": [[-78.69739, 34.40405], [-78.63621, 34.47037], [-78.57493, 34.53665], [-78.51355, 34.60291], [-78.45207, 34.66913], [-78.3905, 34.73532], [-78.32883, 34.80148], [-78.26706, 34.86761], [-78.20518, 34.93371], [-78.14321, 34.99978], [-78.08114, 35.06581], [-78.01897, 35.13182], [-77.9567, 35.19779], [-77.89432, 35.26373], [-77.83185, 35.32963], [-77.76927, 35.39551], [-77.70659, 35.46135], [-77.64381, 35.52716], [-77.61869, 35.55345], [-77.55576, 35.61922], [-77.49273, 35.68495], [-77.42959, 35.75065], [-77.36635, 35.81631], [-77.30301, 35.88194], [-77.25861, 35.92786], [-77.19958, 35.99613], [-77.14045, 36.06437], [-77.08121, 36.13259], [-77.02188, 36.20077], [-76.96243, 36.26893], [-76.90289, 36.33705], [-76.87264, 36.37161], [-76.81381, 36.44018], [-76.75489, 36.50873], [-76.69586, 36.57725], [-76.63672, 36.64574], [-76.57748, 36.7142], [-76.51813, 36.78263], [-76.45868, 36.85103], [-76.39912, 36.9194], [-76.33946, 36.98774], [-76.27968, 37.05605], [-76.2198, 37.12433], [-76.15981, 37.19258], [-76.09972, 37.2608], [-76.03951, 37.32899], [-75.97919, 37.39715], [-75.91877, 37.46528], [-75.85823, 37.53338], [-75.85809, 37.53354], [-75.80446, 37.60522], [-75.75074, 37.67687], [-75.69691, 37.7485], [-75.64298, 37.8201], [-75.62649, 37.84197], [-75.56677, 37.91069], [-75.50694, 37.97937], [-75.447, 38.04803], [-75.44285, 38.05277], [-75.37987, 38.11975], [-75.31677, 38.1867], [-75.25355, 38.25361], [-75.19021, 38.32048], [-75.12676, 38.38733], [-75.06319, 38.45414], [-75.05015, 38.46782], [-74.9812, 38.52956], [-74.91407, 38.59427], [-74.84682, 38.65895], [-74.77945, 38.7236], [-74.75105, 38.75079], [-74.67913, 38.81245], [-74.60709, 38.87405], [-74.53492, 38.93562], [-74.52897, 38.94069], [-74.46018, 39.00459], [-74.39126, 39.06846], [-74.32222, 39.13228], [-74.25305, 39.19606], [-74.18376, 39.2598], [-74.11434, 39.32349], [-74.04479, 39.38715], [-74.0171, 39.41246], [-73.97646, 39.48965], [-73.93573, 39.56683], [-73.8949, 39.644], [-73.85399, 39.72115], [-73.81299, 39.79829], [-73.77189, 39.87541], [-73.7307, 39.95252], [-73.72468, 39.96377], [-73.66115, 40.03141], [-73.59749, 40.09902], [-73.5337, 40.16659], [-73.46979, 40.23412], [-73.45054, 40.25443], [-73.38625, 40.32181], [-73.32184, 40.38914], [-73.2573, 40.45645], [-73.19263, 40.52372], [-73.12783, 40.59095], [-73.0629, 40.65814], [-72.99784, 40.7253], [-72.93264, 40.79242], [-72.86732, 40.85951], [-72.80186, 40.92656], [-72.79886, 40.92963], [-72.73615, 40.99819], [-72.67331, 41.06673], [-72.61034, 41.13523], [-72.54723, 41.20369], [-72.484, 41.27212], [-72.48113, 41.27522], [-72.43128, 41.34966], [-72.38132, 41.42408], [-72.33124, 41.49848], [-72.28105, 41.57286], [-72.23074, 41.64722], [-72.18031, 41.72156], [-72.12977, 41.79587], [-72.07911, 41.87016], [-72.02834, 41.94443], [-71.97744, 42.01867], [-71.92643, 42.0929], [-71.89391, 42.1401], [-71.82543, 42.20619], [-71.7568, 42.27224], [-71.68803, 42.33825], [-71.61911, 42.40421], [-71.55005, 42.47014], [-71.48084, 42.53602], [-71.41149, 42.60186], [-71.34199, 42.66766], [-71.27234, 42.73342], [-71.20255, 42.79914], [-71.13261, 42.86481], [-71.07871, 42.91529], [-71.02331, 42.98808], [-70.96777, 43.06085], [-70.9121, 43.1336], [-70.8563, 43.20631], [-70.80037, 43.279], [-70.7473, 43.34777], [-70.69112, 43.42041], [-70.6348, 43.49303], [-70.57835, 43.56561], [-70.52177, 43.63817], [-70.46504, 43.7107], [-70.40818, 43.78321], [-70.35118, 43.85568], [-70.29404, 43.92813], [-70.23677, 44.00054], [-70.17935, 44.07293], [-70.12179, 44.14529], [-70.06409, 44.21762], [-70.00625, 44.28992], [-69.94827, 44.3622], [-69.89014, 44.43444], [-69.88455, 44.44138], [-69.83043, 44.51522], [-69.77617, 44.58904], [-69.72177, 44.66283], [-69.66723, 44.73659], [-69.61255, 44.81033], [-69.55773, 44.88404], [-69.50278, 44.95772], [-69.44768, 45.03138], [-69.39244, 45.10502], [-69.33705, 45.17862], [-69.28153, 45.2522], [-69.22585, 45.32575], [-69.17004, 45.39928], [-69.11408, 45.47277], [-69.05797, 45.54624], [-69.00172, 45.61969], [-68.94531, 45.6931], [-68.88876, 45.76649], [-68.83206, 45.83985], [-68.77522, 45.91318], [-68.71822, 45.98648], [-68.66107, 46.05976], [-68.60376, 46.133], [-68.54631, 46.20622], [-68.4887, 46.27941], [-68.43094, 46.35257], [-68.37302, 46.4257], [-68.31495, 46.4988], [-68.25672, 46.57187], [-68.19834, 46.64491], [-68.13979, 46.71792], [-68.09455, 46.7742]]}}, {"type": "Feature", "properties": {"ident": "Q97", "type": "RNAV", "dir": "W", "family": "domestic", "points": 22}, "geometry": {"type": "LineString", "coordinates": [[-79.81545, 33.06579], [-79.75833, 33.13401], [-79.70113, 33.20221], [-79.64383, 33.27038], [-79.58645, 33.33852], [-79.52897, 33.40664], [-79.47141, 33.47473], [-79.41375, 33.5428], [-79.35601, 33.61084], [-79.29988, 33.67684], [-79.24338, 33.74565], [-79.18679, 33.81444], [-79.13011, 33.8832], [-79.07334, 33.95194], [-79.01648, 34.02064], [-78.95952, 34.08933], [-78.90247, 34.15798], [-78.87795, 34.18745], [-78.82084, 34.25611], [-78.76364, 34.32474], [-78.70634, 34.39335], [-78.69739, 34.40405]]}}, {"type": "Feature", "properties": {"ident": "Q99", "type": "RNAV", "dir": "BOTH", "family": "domestic", "points": 46}, "geometry": {"type": "LineString", "coordinates": [[-79.99884, 34.81043], [-79.93932, 34.87794], [-79.8797, 34.94542], [-79.81998, 35.01288], [-79.76016, 35.0803], [-79.70025, 35.14769], [-79.69275, 35.15611], [-79.63442, 35.22446], [-79.57599, 35.29277], [-79.51745, 35.36106], [-79.45882, 35.42932], [-79.40009, 35.49756], [-79.34126, 35.56576], [-79.28233, 35.63394], [-79.2233, 35.70208], [-79.18548, 35.74568], [-79.12631, 35.81379], [-79.06704, 35.88188], [-79.00767, 35.94994], [-78.94819, 36.01796], [-78.88862, 36.08596], [-78.82894, 36.15393], [-78.76915, 36.22187], [-78.70926, 36.28978], [-78.64927, 36.35766], [-78.58918, 36.42551], [-78.57116, 36.44582], [-78.516, 36.51637], [-78.46073, 36.58688], [-78.40536, 36.65738], [-78.34989, 36.72784], [-78.29432, 36.79829], [-78.23865, 36.8687], [-78.18288, 36.93909], [-78.15364, 36.97592], [-78.09771, 37.04627], [-78.04167, 37.11659], [-77.98553, 37.18689], [-77.92928, 37.25716], [-77.87293, 37.3274], [-77.81931, 37.3941], [-77.76275, 37.46429], [-77.71481, 37.52366], [-77.65818, 37.59387], [-77.60144, 37.66404], [-77.54505, 37.73364]]}}, {"type": "Feature", "properties": {"ident": "Q99", "type": "RNAV", "dir": "E", "family": "domestic", "points": 28}, "geometry": {"type": "LineString", "coordinates": [[-81.38432, 33.03962], [-81.3397, 33.11409], [-81.29499, 33.18854], [-81.25022, 33.26298], [-81.20536, 33.3374], [-81.16043, 33.41181], [-81.11542, 33.48619], [-81.07034, 33.56057], [-81.02517, 33.63492], [-80.97993, 33.70926], [-80.93461, 33.78358], [-80.89244, 33.85261], [-80.83088, 33.91843], [-80.76921, 33.98421], [-80.75341, 34.00105], [-80.69159, 34.06678], [-80.62969, 34.13247], [-80.56768, 34.19814], [-80.51054, 34.25853], [-80.44947, 34.32484], [-80.3883, 34.39113], [-80.32703, 34.45738], [-80.26567, 34.52361], [-80.2042, 34.5898], [-80.14264, 34.65597], [-80.10337, 34.69811], [-80.0418, 34.76432], [-79.99884, 34.81043]]}}, {"type": "Feature", "properties": {"ident": "L375", "type": "OCEAN", "dir": "", "family": "oceanic", "points": 93}, "geometry": {"type": "LineString", "coordinates": [[-77.00004, 31.35558], [-76.90618, 31.33281], [-76.81237, 31.30997], [-76.7186, 31.28707], [-76.62488, 31.2641], [-76.53121, 31.24106], [-76.43758, 31.21795], [-76.344, 31.19477], [-76.25046, 31.17153], [-76.15697, 31.14822], [-76.06352, 31.12484], [-75.97012, 31.10139], [-75.87677, 31.07788], [-75.78346, 31.0543], [-75.6902, 31.03065], [-75.59699, 31.00694], [-75.50382, 30.98315], [-75.4107, 30.95931], [-75.31763, 30.93539], [-75.2246, 30.91141], [-75.13162, 30.88736], [-75.03868, 30.86325], [-74.94579, 30.83906], [-74.85295, 30.81482], [-74.76016, 30.7905], [-74.66741, 30.76612], [-74.57471, 30.74168], [-74.48206, 30.71717], [-74.38945, 30.69259], [-74.29689, 30.66795], [-74.20438, 30.64324], [-74.11192, 30.61846], [-74.0195, 30.59363], [-73.9568, 30.57673], [-73.86447, 30.55177], [-73.77218, 30.52675], [-73.67994, 30.50166], [-73.58775, 30.47651], [-73.49561, 30.45129], [-73.40351, 30.42601], [-73.31146, 30.40066], [-73.21946, 30.37525], [-73.12751, 30.34978], [-73.03561, 30.32424], [-72.94375, 30.29863], [-72.85194, 30.27296], [-72.76018, 30.24723], [-72.66847, 30.22144], [-72.57681, 30.19558], [-72.48519, 30.16965], [-72.44759, 30.15899], [-72.35799, 30.12833], [-72.26845, 30.09761], [-72.17896, 30.06683], [-72.08953, 30.03598], [-72.00015, 30.00508], [-71.91083, 29.97411], [-71.82156, 29.94309], [-71.73235, 29.912], [-71.64319, 29.88086], [-71.55409, 29.84965], [-71.46505, 29.81839], [-71.37606, 29.78707], [-71.28713, 29.75568], [-71.19825, 29.72424], [-71.10943, 29.69274], [-71.02067, 29.66118], [-70.93196, 29.62956], [-70.84331, 29.59788], [-70.75471, 29.56614], [-70.66617, 29.53434], [-70.57768, 29.50248], [-70.48925, 29.47057], [-70.40087, 29.4386], [-70.31255, 29.40657], [-70.22429, 29.37448], [-70.13608, 29.34233], [-70.04793, 29.31012], [-69.95983, 29.27786], [-69.87179, 29.24554], [-69.78381, 29.21316], [-69.69588, 29.18072], [-69.608, 29.14823], [-69.52019, 29.11568], [-69.43242, 29.08307], [-69.34472, 29.05041], [-69.25706, 29.01768], [-69.16947, 28.98491], [-69.08193, 28.95207], [-68.99444, 28.91918], [-68.90701, 28.88623], [-68.81964, 28.85322], [-68.74079, 28.82337]]}}, {"type": "Feature", "properties": {"ident": "L435", "type": "OCEAN", "dir": "", "family": "oceanic", "points": 93}, "geometry": {"type": "LineString", "coordinates": [[-77.00004, 31.35558], [-76.90618, 31.33281], [-76.81237, 31.30997], [-76.7186, 31.28707], [-76.62488, 31.2641], [-76.53121, 31.24106], [-76.43758, 31.21795], [-76.344, 31.19477], [-76.25046, 31.17153], [-76.15697, 31.14822], [-76.06352, 31.12484], [-75.97012, 31.10139], [-75.87677, 31.07788], [-75.78346, 31.0543], [-75.6902, 31.03065], [-75.59699, 31.00694], [-75.50382, 30.98315], [-75.4107, 30.95931], [-75.31763, 30.93539], [-75.2246, 30.91141], [-75.13162, 30.88736], [-75.03868, 30.86325], [-74.94579, 30.83906], [-74.85295, 30.81482], [-74.76016, 30.7905], [-74.66741, 30.76612], [-74.57471, 30.74168], [-74.48206, 30.71717], [-74.38945, 30.69259], [-74.29689, 30.66795], [-74.20438, 30.64324], [-74.11192, 30.61846], [-74.0195, 30.59363], [-73.9568, 30.57673], [-73.86447, 30.55177], [-73.77218, 30.52675], [-73.67994, 30.50166], [-73.58775, 30.47651], [-73.49561, 30.45129], [-73.40351, 30.42601], [-73.31146, 30.40066], [-73.21946, 30.37525], [-73.12751, 30.34978], [-73.03561, 30.32424], [-72.94375, 30.29863], [-72.85194, 30.27296], [-72.76018, 30.24723], [-72.66847, 30.22144], [-72.57681, 30.19558], [-72.48519, 30.16965], [-72.44759, 30.15899], [-72.35799, 30.12833], [-72.26845, 30.09761], [-72.17896, 30.06683], [-72.08953, 30.03598], [-72.00015, 30.00508], [-71.91083, 29.97411], [-71.82156, 29.94309], [-71.73235, 29.912], [-71.64319, 29.88086], [-71.55409, 29.84965], [-71.46505, 29.81839], [-71.37606, 29.78707], [-71.28713, 29.75568], [-71.19825, 29.72424], [-71.10943, 29.69274], [-71.02067, 29.66118], [-70.93196, 29.62956], [-70.84331, 29.59788], [-70.75471, 29.56614], [-70.66617, 29.53434], [-70.57768, 29.50248], [-70.48925, 29.47057], [-70.40087, 29.4386], [-70.31255, 29.40657], [-70.22429, 29.37448], [-70.13608, 29.34233], [-70.04793, 29.31012], [-69.95983, 29.27786], [-69.87179, 29.24554], [-69.78381, 29.21316], [-69.69588, 29.18072], [-69.608, 29.14823], [-69.52019, 29.11568], [-69.43242, 29.08307], [-69.34472, 29.05041], [-69.25706, 29.01768], [-69.16947, 28.98491], [-69.08193, 28.95207], [-68.99444, 28.91918], [-68.90701, 28.88623], [-68.81964, 28.85322], [-68.74079, 28.82337]]}}, {"type": "Feature", "properties": {"ident": "L451", "type": "OCEAN", "dir": "", "family": "oceanic", "points": 95}, "geometry": {"type": "LineString", "coordinates": [[-71.99411, 25.0], [-72.04002, 25.07221], [-72.08598, 25.1444], [-72.132, 25.21658], [-72.17807, 25.28875], [-72.22419, 25.3609], [-72.27037, 25.43303], [-72.31661, 25.50515], [-72.3629, 25.57726], [-72.40925, 25.64935], [-72.45565, 25.72143], [-72.50211, 25.79349], [-72.54863, 25.86554], [-72.5952, 25.93757], [-72.64183, 26.00959], [-72.68852, 26.08159], [-72.73526, 26.15358], [-72.78206, 26.22556], [-72.82892, 26.29751], [-72.87584, 26.36946], [-72.92282, 26.44138], [-72.96985, 26.51329], [-73.01695, 26.58519], [-73.0641, 26.65707], [-73.11131, 26.72894], [-73.15859, 26.80079], [-73.20592, 26.87262], [-73.25331, 26.94444], [-73.30077, 27.01624], [-73.34828, 27.08803], [-73.39585, 27.1598], [-73.44349, 27.23155], [-73.49119, 27.30329], [-73.53895, 27.37501], [-73.58677, 27.44672], [-73.63465, 27.51841], [-73.6826, 27.59008], [-73.73061, 27.66174], [-73.77868, 27.73338], [-73.82681, 27.805], [-73.87501, 27.87661], [-73.92327, 27.9482], [-73.9716, 28.01977], [-74.01999, 28.09133], [-74.06844, 28.16287], [-74.11696, 28.23439], [-74.12393, 28.24464], [-74.18224, 28.31027], [-74.24063, 28.37587], [-74.29909, 28.44144], [-74.35762, 28.50699], [-74.41623, 28.57251], [-74.47491, 28.63801], [-74.53366, 28.70348], [-74.59248, 28.76893], [-74.65138, 28.83435], [-74.71036, 28.89975], [-74.7694, 28.96512], [-74.82853, 29.03046], [-74.88772, 29.09578], [-74.947, 29.16107], [-75.00634, 29.22634], [-75.06577, 29.29158], [-75.12527, 29.35679], [-75.18484, 29.42198], [-75.24449, 29.48714], [-75.30422, 29.55227], [-75.36403, 29.61738], [-75.42391, 29.68246], [-75.48387, 29.74752], [-75.54391, 29.81254], [-75.60403, 29.87754], [-75.66422, 29.94252], [-75.7245, 30.00746], [-75.78485, 30.07238], [-75.84528, 30.13727], [-75.90579, 30.20213], [-75.96638, 30.26696], [-76.02705, 30.33177], [-76.08781, 30.39655], [-76.14864, 30.4613], [-76.20955, 30.52602], [-76.27055, 30.59071], [-76.33162, 30.65538], [-76.39278, 30.72001], [-76.45402, 30.78462], [-76.51534, 30.8492], [-76.57674, 30.91375], [-76.63823, 30.97827], [-76.6998, 31.04276], [-76.76146, 31.10723], [-76.82319, 31.17166], [-76.88502, 31.23606], [-76.94692, 31.30044], [-77.00004, 31.35558]]}}, {"type": "Feature", "properties": {"ident": "L452", "type": "OCEAN", "dir": "", "family": "oceanic", "points": 120}, "geometry": {"type": "LineString", "coordinates": [[-73.75909, 34.36264], [-73.73276, 34.2822], [-73.70648, 34.20175], [-73.68025, 34.1213], [-73.65407, 34.04084], [-73.62794, 33.96037], [-73.60186, 33.8799], [-73.58706, 33.83415], [-73.56105, 33.75368], [-73.53509, 33.67319], [-73.50919, 33.5927], [-73.48333, 33.51221], [-73.45751, 33.43171], [-73.43175, 33.3512], [-73.40603, 33.27069], [-73.39694, 33.24217], [-73.37129, 33.16165], [-73.34568, 33.08113], [-73.32013, 33.0006], [-73.29462, 32.92006], [-73.26915, 32.83953], [-73.24374, 32.75898], [-73.21837, 32.67843], [-73.19304, 32.59788], [-73.16776, 32.51732], [-73.14253, 32.43675], [-73.11734, 32.35618], [-73.10347, 32.31177], [-73.07835, 32.2312], [-73.05328, 32.15061], [-73.02825, 32.07002], [-73.00327, 31.98943], [-72.97833, 31.90883], [-72.95343, 31.82823], [-72.92857, 31.74762], [-72.90376, 31.66701], [-72.87899, 31.58639], [-72.85427, 31.50577], [-72.82959, 31.42514], [-72.80495, 31.34451], [-72.78035, 31.26388], [-72.75579, 31.18324], [-72.73128, 31.10259], [-72.7068, 31.02194], [-72.68237, 30.94129], [-72.65798, 30.86063], [-72.63363, 30.77996], [-72.60933, 30.6993], [-72.58506, 30.61862], [-72.56744, 30.55997], [-72.54325, 30.47929], [-72.51909, 30.39861], [-72.49497, 30.31792], [-72.4709, 30.23722], [-72.44759, 30.15899], [-72.42395, 30.07821], [-72.40034, 29.99743], [-72.37678, 29.91664], [-72.35325, 29.83584], [-72.32975, 29.75504], [-72.3063, 29.67424], [-72.28288, 29.59344], [-72.25951, 29.51263], [-72.23616, 29.43181], [-72.21286, 29.35099], [-72.18959, 29.27017], [-72.16636, 29.18934], [-72.14317, 29.10851], [-72.12001, 29.02768], [-72.09689, 28.94684], [-72.0738, 28.866], [-72.05076, 28.78515], [-72.02774, 28.7043], [-72.00476, 28.62345], [-71.98182, 28.54259], [-71.95891, 28.46173], [-71.93604, 28.38086], [-71.91933, 28.32168], [-71.89652, 28.24081], [-71.87374, 28.15993], [-71.851, 28.07905], [-71.8283, 27.99817], [-71.80563, 27.91728], [-71.78299, 27.83639], [-71.76038, 27.75549], [-71.73781, 27.67459], [-71.71528, 27.59369], [-71.69277, 27.51279], [-71.6703, 27.43188], [-71.64786, 27.35096], [-71.62546, 27.27005], [-71.60309, 27.18912], [-71.58075, 27.1082], [-71.55844, 27.02727], [-71.53616, 26.94634], [-71.51392, 26.86541], [-71.49171, 26.78447], [-71.46953, 26.70353], [-71.44738, 26.62258], [-71.42526, 26.54163], [-71.40318, 26.46068], [-71.38112, 26.37973], [-71.3591, 26.29877], [-71.3371, 26.2178], [-71.31514, 26.13684], [-71.29321, 26.05587], [-71.27131, 25.9749], [-71.24943, 25.89392], [-71.22759, 25.81294], [-71.20578, 25.73196], [-71.184, 25.65098], [-71.16225, 25.56999], [-71.14052, 25.489], [-71.11883, 25.408], [-71.09716, 25.327], [-71.07553, 25.246], [-71.05392, 25.165], [-71.03234, 25.08399], [-71.01079, 25.00298], [-71.01, 25.0]]}}, {"type": "Feature", "properties": {"ident": "L453", "type": "OCEAN", "dir": "", "family": "oceanic", "points": 75}, "geometry": {"type": "LineString", "coordinates": [[-72.38188, 34.72433], [-72.37285, 34.64133], [-72.36383, 34.55834], [-72.35482, 34.47534], [-72.34584, 34.39234], [-72.33687, 34.30934], [-72.32793, 34.22633], [-72.319, 34.14333], [-72.31008, 34.06033], [-72.30167, 33.98181], [-72.2793, 33.90057], [-72.25697, 33.81933], [-72.23469, 33.73809], [-72.21245, 33.65684], [-72.19025, 33.57558], [-72.16809, 33.49433], [-72.14598, 33.41307], [-72.1239, 33.3318], [-72.10187, 33.25053], [-72.07988, 33.16926], [-72.05793, 33.08798], [-72.04177, 33.02806], [-72.01989, 32.94677], [-71.99805, 32.86549], [-71.97625, 32.78419], [-71.95449, 32.7029], [-71.93277, 32.6216], [-71.91108, 32.5403], [-71.88944, 32.45899], [-71.86784, 32.37768], [-71.84627, 32.29637], [-71.82475, 32.21505], [-71.80326, 32.13373], [-71.78181, 32.0524], [-71.77998, 32.04543], [-71.75857, 31.9641], [-71.7372, 31.88277], [-71.71587, 31.80143], [-71.69458, 31.72009], [-71.67333, 31.63875], [-71.65211, 31.5574], [-71.63093, 31.47605], [-71.60979, 31.3947], [-71.58868, 31.31334], [-71.56761, 31.23198], [-71.54657, 31.15061], [-71.52557, 31.06925], [-71.50461, 30.98788], [-71.48369, 30.9065], [-71.46279, 30.82512], [-71.44194, 30.74374], [-71.42112, 30.66236], [-71.40033, 30.58097], [-71.37958, 30.49958], [-71.35887, 30.41819], [-71.33818, 30.33679], [-71.31754, 30.25539], [-71.29692, 30.17398], [-71.27635, 30.09258], [-71.2558, 30.01117], [-71.23529, 29.92975], [-71.21481, 29.84834], [-71.19437, 29.76692], [-71.17396, 29.68549], [-71.15358, 29.60407], [-71.13323, 29.52264], [-71.11292, 29.44121], [-71.09264, 29.35977], [-71.07239, 29.27833], [-71.05218, 29.19689], [-71.03199, 29.11545], [-71.01184, 29.034], [-70.99172, 28.95255], [-70.97164, 28.87109], [-70.96679, 28.85142]]}}, {"type": "Feature", "properties": {"ident": "L454", "type": "OCEAN", "dir": "", "family": "oceanic", "points": 121}, "geometry": {"type": "LineString", "coordinates": [[-71.96506, 37.30592], [-71.94318, 37.22442], [-71.92135, 37.14293], [-71.89957, 37.06143], [-71.87784, 36.97993], [-71.85615, 36.89842], [-71.8345, 36.81691], [-71.81291, 36.7354], [-71.79136, 36.65388], [-71.76985, 36.57235], [-71.74839, 36.49083], [-71.72698, 36.4093], [-71.70561, 36.32776], [-71.68428, 36.24623], [-71.663, 36.16468], [-71.64177, 36.08314], [-71.62057, 36.00159], [-71.59943, 35.92004], [-71.57832, 35.83848], [-71.55726, 35.75692], [-71.53624, 35.67536], [-71.52675, 35.63847], [-71.5058, 35.5569], [-71.48488, 35.47533], [-71.46401, 35.39375], [-71.44319, 35.31217], [-71.4224, 35.23059], [-71.40166, 35.149], [-71.38095, 35.06741], [-71.36029, 34.98582], [-71.33967, 34.90422], [-71.3191, 34.82262], [-71.29856, 34.74101], [-71.28066, 34.66975], [-71.26019, 34.58814], [-71.23977, 34.50653], [-71.21939, 34.42491], [-71.19905, 34.34329], [-71.17875, 34.26166], [-71.15849, 34.18003], [-71.13826, 34.0984], [-71.11808, 34.01677], [-71.09794, 33.93513], [-71.07783, 33.85349], [-71.05776, 33.77184], [-71.03773, 33.69019], [-71.03699, 33.68717], [-71.017, 33.60552], [-70.99705, 33.52386], [-70.97713, 33.4422], [-70.95726, 33.36054], [-70.93742, 33.27888], [-70.91762, 33.19721], [-70.89785, 33.11554], [-70.87812, 33.03387], [-70.85843, 32.95219], [-70.83878, 32.87051], [-70.81916, 32.78883], [-70.79957, 32.70714], [-70.78003, 32.62545], [-70.76051, 32.54376], [-70.74104, 32.46206], [-70.7216, 32.38037], [-70.70219, 32.29866], [-70.68282, 32.21696], [-70.66348, 32.13525], [-70.64418, 32.05354], [-70.62492, 31.97183], [-70.60568, 31.89012], [-70.58648, 31.8084], [-70.56732, 31.72668], [-70.54819, 31.64495], [-70.52909, 31.56322], [-70.51003, 31.48149], [-70.50119, 31.44354], [-70.48217, 31.36181], [-70.46319, 31.28007], [-70.44424, 31.19833], [-70.42533, 31.11659], [-70.40645, 31.03484], [-70.3876, 30.95309], [-70.36878, 30.87134], [-70.34999, 30.78959], [-70.33124, 30.70783], [-70.31252, 30.62607], [-70.29383, 30.54431], [-70.27517, 30.46255], [-70.25654, 30.38078], [-70.25388, 30.3691], [-70.23529, 30.28733], [-70.21673, 30.20555], [-70.1982, 30.12378], [-70.17971, 30.042], [-70.16124, 29.96022], [-70.1428, 29.87844], [-70.1244, 29.79665], [-70.10602, 29.71486], [-70.08767, 29.63307], [-70.06935, 29.55128], [-70.05107, 29.46948], [-70.03281, 29.38768], [-70.01458, 29.30588], [-69.99638, 29.22408], [-69.97821, 29.14227], [-69.96007, 29.06046], [-69.94196, 28.97865], [-69.92387, 28.89684], [-69.90582, 28.81502], [-69.88779, 28.7332], [-69.86979, 28.65138], [-69.85182, 28.56956], [-69.83388, 28.48774], [-69.81596, 28.40591], [-69.79807, 28.32408], [-69.78021, 28.24225], [-69.76238, 28.16041], [-69.74457, 28.07857], [-69.7268, 27.99674], [-69.70904, 27.91489], [-69.69132, 27.83305], [-69.67514, 27.75822]]}}, {"type": "Feature", "properties": {"ident": "L455", "type": "OCEAN", "dir": "", "family": "oceanic", "points": 112}, "geometry": {"type": "LineString", "coordinates": [[-70.98382, 37.71154], [-70.96096, 37.6302], [-70.93816, 37.54886], [-70.9154, 37.4675], [-70.89269, 37.38615], [-70.87003, 37.30479], [-70.84742, 37.22343], [-70.82485, 37.14206], [-70.80234, 37.06069], [-70.77987, 36.97931], [-70.75746, 36.89793], [-70.73509, 36.81654], [-70.71276, 36.73515], [-70.69049, 36.65376], [-70.66826, 36.57236], [-70.64608, 36.49096], [-70.62395, 36.40956], [-70.60186, 36.32815], [-70.57982, 36.24673], [-70.55782, 36.16531], [-70.53587, 36.08389], [-70.51396, 36.00247], [-70.4921, 35.92104], [-70.47029, 35.8396], [-70.44879, 35.75917], [-70.42706, 35.67773], [-70.40538, 35.59628], [-70.38375, 35.51483], [-70.36216, 35.43338], [-70.34061, 35.35192], [-70.3191, 35.27046], [-70.29764, 35.18899], [-70.27623, 35.10752], [-70.25485, 35.02605], [-70.23352, 34.94457], [-70.21223, 34.86309], [-70.19098, 34.78161], [-70.16977, 34.70012], [-70.14861, 34.61863], [-70.12748, 34.53714], [-70.1064, 34.45564], [-70.08536, 34.37414], [-70.06436, 34.29263], [-70.0434, 34.21112], [-70.02248, 34.12961], [-70.00161, 34.04809], [-69.98077, 33.96657], [-69.95997, 33.88505], [-69.93921, 33.80352], [-69.91849, 33.72199], [-69.89781, 33.64046], [-69.87717, 33.55892], [-69.85657, 33.47738], [-69.83601, 33.39584], [-69.81548, 33.31429], [-69.81247, 33.30232], [-69.792, 33.22077], [-69.77156, 33.13921], [-69.75116, 33.05766], [-69.73079, 32.97609], [-69.71047, 32.89453], [-69.69018, 32.81296], [-69.66993, 32.73139], [-69.64971, 32.64981], [-69.62953, 32.56823], [-69.60939, 32.48665], [-69.58929, 32.40507], [-69.56922, 32.32348], [-69.54919, 32.24189], [-69.52919, 32.1603], [-69.50923, 32.0787], [-69.48931, 31.9971], [-69.46942, 31.9155], [-69.44957, 31.83389], [-69.42975, 31.75228], [-69.40996, 31.67067], [-69.39021, 31.58905], [-69.3705, 31.50743], [-69.35082, 31.42581], [-69.33117, 31.34419], [-69.31156, 31.26256], [-69.29198, 31.18093], [-69.27244, 31.09929], [-69.25293, 31.01766], [-69.23345, 30.93602], [-69.22494, 30.90032], [-69.20552, 30.81867], [-69.18612, 30.73703], [-69.16676, 30.65538], [-69.14743, 30.57372], [-69.12813, 30.49207], [-69.10887, 30.41041], [-69.08964, 30.32875], [-69.07044, 30.24708], [-69.05127, 30.16542], [-69.03213, 30.08375], [-69.01303, 30.00208], [-68.99395, 29.9204], [-68.97491, 29.83872], [-68.9559, 29.75704], [-68.93692, 29.67536], [-68.91797, 29.59367], [-68.89905, 29.51198], [-68.88016, 29.43029], [-68.8613, 29.3486], [-68.84248, 29.2669], [-68.82368, 29.1852], [-68.80491, 29.1035], [-68.78617, 29.0218], [-68.76746, 28.94009], [-68.74878, 28.85838], [-68.74079, 28.82337]]}}, {"type": "Feature", "properties": {"ident": "L456", "type": "OCEAN", "dir": "", "family": "oceanic", "points": 88}, "geometry": {"type": "LineString", "coordinates": [[-70.05952, 38.32845], [-70.0362, 38.24716], [-70.01294, 38.16586], [-69.98972, 38.08455], [-69.96656, 38.00324], [-69.94345, 37.92193], [-69.9204, 37.84061], [-69.89739, 37.75929], [-69.87443, 37.67796], [-69.85153, 37.59663], [-69.82867, 37.51529], [-69.80586, 37.43395], [-69.7831, 37.35261], [-69.7604, 37.27126], [-69.73774, 37.1899], [-69.71513, 37.10855], [-69.69257, 37.02718], [-69.67005, 36.94582], [-69.64759, 36.86445], [-69.62517, 36.78307], [-69.6028, 36.70169], [-69.58048, 36.62031], [-69.5582, 36.53892], [-69.53597, 36.45753], [-69.51379, 36.37614], [-69.49165, 36.29474], [-69.46956, 36.21333], [-69.45509, 36.15989], [-69.43307, 36.07847], [-69.41111, 35.99706], [-69.38919, 35.91564], [-69.36731, 35.83422], [-69.34548, 35.75279], [-69.3237, 35.67136], [-69.30196, 35.58992], [-69.28026, 35.50849], [-69.25861, 35.42704], [-69.237, 35.3456], [-69.21543, 35.26415], [-69.19391, 35.18269], [-69.17243, 35.10123], [-69.15099, 35.01977], [-69.1296, 34.93831], [-69.10825, 34.85684], [-69.08694, 34.77537], [-69.06567, 34.69389], [-69.04445, 34.61241], [-69.02326, 34.53092], [-69.00212, 34.44944], [-68.98102, 34.36795], [-68.95996, 34.28645], [-68.93894, 34.20495], [-68.91796, 34.12345], [-68.91449, 34.10995], [-68.89356, 34.02844], [-68.87267, 33.94693], [-68.85182, 33.86542], [-68.83101, 33.7839], [-68.81024, 33.70238], [-68.78951, 33.62085], [-68.76882, 33.53933], [-68.74817, 33.45779], [-68.72756, 33.37626], [-68.70698, 33.29472], [-68.68645, 33.21318], [-68.66595, 33.13164], [-68.64549, 33.05009], [-68.62507, 32.96854], [-68.60468, 32.88698], [-68.58434, 32.80542], [-68.56403, 32.72386], [-68.54376, 32.6423], [-68.52352, 32.56073], [-68.50332, 32.47916], [-68.48316, 32.39759], [-68.46303, 32.31601], [-68.44294, 32.23443], [-68.42289, 32.15284], [-68.40287, 32.07126], [-68.38289, 31.98967], [-68.36295, 31.90807], [-68.34303, 31.82648], [-68.32316, 31.74488], [-68.30332, 31.66328], [-68.28351, 31.58167], [-68.26374, 31.50006], [-68.244, 31.41845], [-68.23868, 31.39642]]}}, {"type": "Feature", "properties": {"ident": "L457", "type": "OCEAN", "dir": "", "family": "oceanic", "points": 64}, "geometry": {"type": "LineString", "coordinates": [[-71.96506, 37.30592], [-71.89964, 37.24085], [-71.83433, 37.17574], [-71.76914, 37.1106], [-71.70406, 37.04543], [-71.63909, 36.98021], [-71.57423, 36.91497], [-71.50948, 36.84969], [-71.44485, 36.78437], [-71.38032, 36.71902], [-71.3159, 36.65363], [-71.2516, 36.58821], [-71.1874, 36.52275], [-71.12331, 36.45726], [-71.05932, 36.39174], [-70.99545, 36.32618], [-70.93168, 36.26059], [-70.86802, 36.19496], [-70.80447, 36.1293], [-70.74102, 36.06361], [-70.67768, 35.99788], [-70.61445, 35.93212], [-70.55132, 35.86633], [-70.48829, 35.8005], [-70.44879, 35.75917], [-70.38594, 35.69329], [-70.32319, 35.62737], [-70.26055, 35.56142], [-70.19801, 35.49544], [-70.13557, 35.42943], [-70.07324, 35.36338], [-70.011, 35.29731], [-69.94887, 35.2312], [-69.88684, 35.16506], [-69.82491, 35.09888], [-69.76308, 35.03268], [-69.70136, 34.96645], [-69.63973, 34.90018], [-69.5782, 34.83388], [-69.51677, 34.76756], [-69.45544, 34.7012], [-69.3942, 34.63481], [-69.33307, 34.56839], [-69.27203, 34.50194], [-69.21109, 34.43546], [-69.15024, 34.36895], [-69.0895, 34.30241], [-69.02885, 34.23583], [-68.96829, 34.16923], [-68.91449, 34.10995], [-68.85412, 34.04329], [-68.79384, 33.9766], [-68.73366, 33.90988], [-68.67357, 33.84313], [-68.61358, 33.77636], [-68.55368, 33.70955], [-68.49387, 33.64272], [-68.43416, 33.57585], [-68.37454, 33.50896], [-68.31501, 33.44204], [-68.25557, 33.37509], [-68.19622, 33.30812], [-68.13697, 33.24111], [-68.10599, 33.20603]]}}, {"type": "Feature", "properties": {"ident": "L459", "type": "OCEAN", "dir": "", "family": "oceanic", "points": 56}, "geometry": {"type": "LineString", "coordinates": [[-70.98382, 37.71154], [-70.91805, 37.64648], [-70.85238, 37.58137], [-70.78684, 37.51623], [-70.72141, 37.45106], [-70.65609, 37.38584], [-70.59088, 37.32059], [-70.52579, 37.25531], [-70.46081, 37.18999], [-70.39595, 37.12464], [-70.33119, 37.05925], [-70.26655, 36.99382], [-70.20202, 36.92836], [-70.1376, 36.86286], [-70.07328, 36.79733], [-70.00908, 36.73177], [-69.94499, 36.66617], [-69.88101, 36.60054], [-69.81714, 36.53487], [-69.75337, 36.46917], [-69.68972, 36.40343], [-69.62617, 36.33766], [-69.56273, 36.27186], [-69.49939, 36.20603], [-69.45509, 36.15989], [-69.39194, 36.09399], [-69.3289, 36.02806], [-69.26596, 35.9621], [-69.20313, 35.8961], [-69.1404, 35.83007], [-69.07778, 35.76401], [-69.01526, 35.69792], [-68.95285, 35.63179], [-68.89054, 35.56564], [-68.82833, 35.49945], [-68.76622, 35.43323], [-68.70422, 35.36697], [-68.64231, 35.30069], [-68.58051, 35.23437], [-68.51881, 35.16802], [-68.45721, 35.10164], [-68.39571, 35.03523], [-68.33431, 34.96879], [-68.27301, 34.90232], [-68.21181, 34.83582], [-68.15071, 34.76929], [-68.08971, 34.70272], [-68.0288, 34.63613], [-67.968, 34.56951], [-67.90729, 34.50285], [-67.84667, 34.43617], [-67.78616, 34.36945], [-67.72574, 34.30271], [-67.66541, 34.23594], [-67.60518, 34.16913], [-67.57762, 34.13852]]}}, {"type": "Feature", "properties": {"ident": "L461", "type": "OCEAN", "dir": "", "family": "oceanic", "points": 55}, "geometry": {"type": "LineString", "coordinates": [[-70.05952, 38.32845], [-69.99234, 38.26392], [-69.92528, 38.19935], [-69.85834, 38.13475], [-69.79151, 38.0701], [-69.72481, 38.00542], [-69.65822, 37.9407], [-69.59175, 37.87594], [-69.5254, 37.81115], [-69.45916, 37.74632], [-69.39304, 37.68145], [-69.32704, 37.61655], [-69.26115, 37.5516], [-69.19537, 37.48662], [-69.12971, 37.42161], [-69.06416, 37.35656], [-68.99873, 37.29147], [-68.97327, 37.2661], [-68.90799, 37.20096], [-68.84283, 37.13579], [-68.77778, 37.07058], [-68.71285, 37.00533], [-68.64802, 36.94005], [-68.58331, 36.87473], [-68.51871, 36.80938], [-68.45421, 36.74399], [-68.38983, 36.67857], [-68.32556, 36.61312], [-68.28745, 36.57424], [-68.22335, 36.50872], [-68.15936, 36.44318], [-68.09548, 36.3776], [-68.03171, 36.31198], [-67.96805, 36.24633], [-67.90449, 36.18065], [-67.84104, 36.11493], [-67.77769, 36.04918], [-67.71445, 35.9834], [-67.65132, 35.91758], [-67.58829, 35.85173], [-67.52536, 35.78585], [-67.46254, 35.71994], [-67.39983, 35.65399], [-67.33721, 35.58801], [-67.2747, 35.522], [-67.2123, 35.45595], [-67.14999, 35.38987], [-67.08779, 35.32377], [-67.02569, 35.25763], [-66.96369, 35.19145], [-66.90179, 35.12525], [-66.83999, 35.05902], [-66.77829, 34.99275], [-66.71669, 34.92645], [-66.66758, 34.87349]]}}, {"type": "Feature", "properties": {"ident": "L462", "type": "OCEAN", "dir": "", "family": "oceanic", "points": 49}, "geometry": {"type": "LineString", "coordinates": [[-67.57285, 38.87718], [-67.53089, 38.80053], [-67.48901, 38.72387], [-67.44722, 38.64719], [-67.40552, 38.57049], [-67.36391, 38.49378], [-67.32239, 38.41706], [-67.28095, 38.34032], [-67.23961, 38.26357], [-67.19835, 38.1868], [-67.15718, 38.11001], [-67.11609, 38.03322], [-67.07509, 37.95641], [-67.03418, 37.87958], [-66.99335, 37.80274], [-66.95261, 37.72589], [-66.91195, 37.64902], [-66.87137, 37.57214], [-66.83088, 37.49524], [-66.80952, 37.4546], [-66.76916, 37.37768], [-66.72888, 37.30075], [-66.68869, 37.22381], [-66.64857, 37.14685], [-66.60854, 37.06988], [-66.56859, 36.99289], [-66.52872, 36.91589], [-66.48894, 36.83888], [-66.44923, 36.76185], [-66.4096, 36.68482], [-66.37005, 36.60776], [-66.33058, 36.5307], [-66.29119, 36.45362], [-66.25187, 36.37653], [-66.21264, 36.29943], [-66.17348, 36.22231], [-66.1344, 36.14518], [-66.09539, 36.06804], [-66.05646, 35.99089], [-66.01761, 35.91372], [-65.97884, 35.83654], [-65.94014, 35.75935], [-65.90151, 35.68214], [-65.86296, 35.60493], [-65.82448, 35.5277], [-65.78608, 35.45046], [-65.74775, 35.3732], [-65.70949, 35.29594], [-65.68779, 35.25204]]}}, {"type": "Feature", "properties": {"ident": "L463", "type": "OCEAN", "dir": "", "family": "oceanic", "points": 49}, "geometry": {"type": "LineString", "coordinates": [[-77.633, 28.12603], [-77.57584, 28.05969], [-77.51875, 27.99333], [-77.46174, 27.92694], [-77.40479, 27.86053], [-77.34791, 27.79409], [-77.2911, 27.72763], [-77.23436, 27.66115], [-77.17769, 27.59464], [-77.12109, 27.52812], [-77.06455, 27.46157], [-77.00809, 27.39499], [-76.95169, 27.3284], [-76.89536, 27.26178], [-76.8391, 27.19513], [-76.7829, 27.12847], [-76.72677, 27.06178], [-76.67071, 26.99508], [-76.61472, 26.92835], [-76.55879, 26.86159], [-76.52191, 26.81752], [-76.46609, 26.75073], [-76.41034, 26.68392], [-76.35466, 26.61709], [-76.29904, 26.55023], [-76.24348, 26.48335], [-76.18799, 26.41645], [-76.13256, 26.34953], [-76.0772, 26.28259], [-76.0219, 26.21563], [-75.96666, 26.14864], [-75.91149, 26.08164], [-75.85638, 26.01461], [-75.85157, 26.00875], [-75.79653, 25.9417], [-75.74156, 25.87463], [-75.68664, 25.80754], [-75.63179, 25.74043], [-75.577, 25.67329], [-75.52228, 25.60614], [-75.46761, 25.53896], [-75.41301, 25.47177], [-75.35846, 25.40456], [-75.30398, 25.33732], [-75.24956, 25.27007], [-75.1952, 25.20279], [-75.14089, 25.1355], [-75.08665, 25.06818], [-75.07272, 25.05089]]}}, {"type": "Feature", "properties": {"ident": "L658", "type": "RNAV", "dir": "", "family": "oceanic", "points": 15}, "geometry": {"type": "LineString", "coordinates": [[-66.3304, 47.99096], [-66.26589, 47.9197], [-66.20157, 47.84841], [-66.13742, 47.77708], [-66.07345, 47.70571], [-66.00965, 47.63431], [-65.94603, 47.56287], [-65.88258, 47.4914], [-65.8193, 47.41989], [-65.75619, 47.34835], [-65.69326, 47.27678], [-65.63049, 47.20516], [-65.5679, 47.13352], [-65.50547, 47.06184], [-65.4568, 47.0058]]}}, {"type": "Feature", "properties": {"ident": "L729", "type": "RNAV", "dir": "", "family": "oceanic", "points": 2}, "geometry": {"type": "LineString", "coordinates": [[-68.12577, 47.28891], [-68.16685, 47.95058]]}}, {"type": "Feature", "properties": {"ident": "L743", "type": "RNAV", "dir": "", "family": "oceanic", "points": 16}, "geometry": {"type": "LineString", "coordinates": [[-66.3304, 47.99096], [-66.23817, 47.93501], [-66.14615, 47.87899], [-66.05433, 47.82289], [-65.9627, 47.76672], [-65.87128, 47.71047], [-65.78005, 47.65416], [-65.74021, 47.6295], [-65.70365, 47.54991], [-65.6672, 47.4703], [-65.63086, 47.39067], [-65.59463, 47.31104], [-65.5585, 47.2314], [-65.52249, 47.15174], [-65.48659, 47.07208], [-65.4568, 47.0058]]}}]}